# name	address	city	state	zipcode	phone	website	general email	ceo name	ceo email
3M	3M Center	St. Paul	MN	55144	651-733-1110	www.3m.com	info@3m.com	George W. Buckley	gwbuckley@mmm.com
A. Schulman	3550 W. Market St.	Fairlawn	OH	44333	330-666-3751	www.aschulman.com	info@aschulman.com	Joseph M. Gingo	None
A.G. Edwards	1 N. Jefferson Ave.	Saint Louis	MO	63103	314-955-3000	www.agedwards.com	websupport@agedwards.com	Robert L. Bagby	robert.bagby@agedwards.com
A.O. Smith	11270 W. Park Place	Milwaukee	WI	53224	414-359-4000	www.aosmith.com	info@aosmith.com	Paul W. Jones	None
Abbott Laboratories	100 Abbott Park Rd.	Abbott Park	IL	60064	847-937-6100	www.abbott.com	Melissa.brotz@abbott.com	Miles D. White	miles.white@abbott.com
Abercrombie & Fitch	6301 Fitch Path	New Albany	OH	43054	614-283-6500	www.abercrombie.com	info@abercrombie.com	Michael S. Jeffries	mike_jeffries@abercrombie.com
AbitibiBowater	55 E. Camperdown Way	Greenville	SC	29602	864-271-7733	www.abitibibowater.com	info@abitibibowater.com	David J. Paterson	None
ABM Industries	160 Pacific Ave.	San Francisco	CA	94111	415-733-4000	www.abm.com	info@abm.com	Henrik C. Slipsager	hslipsager@abm.com
ACCO Brands	300 Tower Pkwy.	Prairie View	IL	60069	847-541-9500	www.accobrands.com	info@acco.com	David D. Campbell	david.campbell@acco.com
Acuity Brands	1170 Peachtree St. N.E.	Atlanta	GA	30309	404-853-1400	www.acuitybrands.com	info@acuitybrandsnyc.com	Vernon J. Nagel	vern.nagel@acuitybrands.com
Adobe Systems	345 Park Ave.	San Jose	CA	95110	408-536-6000	www.adobe.com	info@adobe.com	Shantanu Narayen	snarayen@adobe.com
Advance Auto Parts	5008 Airport Rd.	Roanoke	VA	24012	540-362-4911	www.advanceautoparts.com	cccsupport@advance-auto.com	Darren R. Jackson	darren.jackson@advanceautoparts.com
Advanced Micro Devices	1 AMD Place	Sunnyvale	CA	94085	408-749-4000	www.amd.com	complaints@amd.com	Hector de J. Ruiz	hector.ruiz@amd.com
Aetna	151 Farmington Ave.	Hartford	CT	06156	860-273-0123	www.aetna.com	sandbergj@aetna.com	Ronald A. Williams	None
Affiliated Computer Services	2828 N. Haskell Ave.	Dallas	TX	75204	214-841-6111	www.acs-inc.com	info@acs-inc.com	Lynn R. Blodgett	lynn.blodgett@acs-inc.com
Affinia Group Intermediate Holdings	1101 Technology Dr.	Ann Arbor	MI	48108	734-827-5400	www.affiniagroup.com	general.info@affiniagroup.com	Terry R. McCormick	None
AFLAC	1932 Wynnton Rd.	Columbus	GA	31999	706-323-3431	www.aflac.com	siu@aflac.com	Daniel P. Amos	damos@aflac.com
AGCO	4205 River Green Pkwy.	Duluth	GA	30096	770-813-9200	www.agcocorp.com	corporate.relations@agcocorp.com	Martin H. Richenhagen	None
Agilent Technologies	5301 Stevens Creek Blvd.	Santa Clara	CA	95051	408-553-7777	www.agilent.com	contact_us@agilent.com	William P. Sullivan	None
Agilysys	2255 Glades Road	Boca Raton	FL	33431	561-999-8700	www.agilysys.com	agilysyssupport@agilysys.com	Arthur Rhein	
AGL Resources	10 Peachtree Place NE	Atlanta	GA	30309	404-584-4000	www.aglresources.com	corpcomm@aglresources.com	John W. Somerhalder II	None
AIMCO	4582 S. Ulster St. Pkwy.	Denver	CO	80237	303-757-8101	www.aimco.com	ResidentRelations@aimco.com	Terry Considine	None
Air Products & Chemicals	7201 Hamilton Blvd.	Allentown	PA	18195	610-481-4911	www.airproducts.com	info@airproducts.com	John E. McGlade	mcgladje@airproducts.com
Airgas	259 N. Radnor-Chester Rd.	Radnor	PA	19087	610-687-5253	www.airgas.com	custserv@airgas.com	Peter McCausland	peter.mccausland@airgas.com
Airtran Holdings	9955 AirTran Blvd.	Orlando	FL	32827	407-318-5600	www.airtran.com	info@airtranweb.com	Robert L. Fornaro	None
AK Steel Holding	9227 Centre Pointe Dr.	West Chester	OH	45069	513-425-5000	www.aksteel.com	mike.frankland@aksteel.com	James L. Wainscott	
Alaska Air Group	19300 International Blvd.	Tukwila	WA	98188	206-392-5040	www.alaskaair.com	Reservations@alaskaair.com	William S. Ayer	william.ayer@alaskaair.com
Albemarle	330 S. Fourth St.	Richmond	VA	23219	804-788-6000	www.albemarle.com	eelko.brevoord@albemarle.com	Mark C. Rohr	m.rohr@albemarle.com
Alcoa	390 Park Ave.	New York	NY	10022	212-836-2674	www.alcoa.com	AlcoaDirect@Alcoa.com.	Alain J.P. Belda	alain.belda@alcoa.com
Aleris International	25825 Science Park Dr.	Beachwood	OH	44122	216-910-3400	www.aleris.com	hr@aleris.com	Steven J. Demetriou	steve.demetriou@aleris.com
Alexander & Baldwin	822 Bishop St.	Honolulu	HI	96813	808-525-6611	www.alexanderbaldwin.com	inquiries@abprop.com	W. Allen Doane	a.doane@alexanderbaldwin.com
Allegheny Energy	800 Cabin Hill Dr.	Greensburg	PA	15601	724-837-3000	www.alleghenyenergy.com	accsales@alleghenyenergy.com	Paul J. Evanson	pevanson@alleghenyenergy.com
Allegheny Technologies	1000 Six PPG Place	Downtown	PA	15222	412-394-2800	www.alleghenytechnologies.com	info@alleghenytechnologies.com	L. Patrick Hassey	None
Allergan	2525 Dupont Dr.	Irvine	CA	92612	714-246-4500	www.allergan.com	info@allergan.com	David E. I. Pyott	pyott_david@allergan.com
Alliance Data Systems	17655 Waterview Pkwy.	Dallas	TX	75252	972-348-5100	www.alliancedata.com	sales@alliancedatasystems.com	J. Michael Parks	michael.parks@alliancedata.com
Alliance One International	8001 Aerial Center Parkway	Morrisville	NC	27560	919-379-4300	www.aointl.com	info@amstock.com	Robert E. Harrison	None
Alliant Energy	4902 N. Biltmore Ln.	Madison	WI	53718	608-458-3311	www.alliantenergy.com	customercare@alliantenergy.com	William D. Harvey	None
Alliant Techsystems	5050 Lincoln Dr.	Edina	MN	55436	952-351-3000	www.atk.com	atk.corporate@atk.com	Daniel J. Murphy	daniel.murphy@atk.com
Allied Waste Industries	18500 N. Allied Way	Phoenix	AZ	85054	480-627-2700	www.alliedwaste.com	mkikkert@awin.com	John J. Zillmer	None
Allstate	2775 Sanders Rd.	Northbrook	IL	60062	847-402-5000	www.allstate.com	None	Thomas J. Wilson	tjwil@allstate.com
Alltel	1 Allied Dr.	Little Rock	AR	72202	501-905-8000	www.alltel.com	None	Scott T. Ford	None
Alpha Natural Resources	1 Alpha Place	Abingdon	VA	24212	276-619-4410	www.alphanr.com	None	Michael J. Quillen	None
Altria Group	6601 W. Broad St.	West End	VA	23230	804-274-2200	www.altria.com	None	Michael E. Syzmanczyk	None
Amazon.com	1200 12th Avenue S.	Seattle	WA	98144	206-266-1000	www.amazon.com	info@amazon.com	Jeffrey P. Bezos	info@amazon.com
AMC Entertainment	920 Main St.	Kansas City	MO	64105	816-221-4000	www.amctheatres.com	CustomerService@MovieTickets.com	Peter C. Brown	None
Amerco	1325 Airmotive Way	Reno	NV	89502	775-688-6300	www.amerco.com	None	Edward J. Shoen	None
Ameren	1901 Chouteau Ave.	Saint Louis	MO	63103	314-621-3222	www.ameren.com	swarren@ameren.com	Gary L. Rainwater	grainwater@ameren.com
American Axle & Manufacturing	1 Dauch Dr.	Detroit	MI	48211	313-758-2000	www.aam.com	AAMHR@aam.com	Richard E. Dauch	None
American Eagle Outfitters	77 Hot Metal St.	Carson	PA	15203	412-432-3300	www.ae.com	info@aegiftcards.com	James V. O'Donnell	None
American Electric Power	1 Riverside Plaza	Columbus	OH	43215	614-716-1000	www.aep.com	info@aep.com	Michael G. Morris	None
American Express	200 Vesey St.	New York	NY	10285	212-640-2000	www.americanexpress.com	phone number only	Kenneth I. Chenault	kenneth.chenault@aexp.com
American Family Insurance Group	6000 American Pkwy.	Madison	WI	53783	608-249-2111	www.amfam.com	info@amfam.com	David R. Anderson	None
American Financial Group	1 E. Fourth St.	Cincinnati	OH	45202	513-579-2121	www.afginc.com	AFGInvestorRelations@gaic.com		None
American Greetings	1 American Rd.	Brooklyn	OH	44144	216-252-7300	www.americangreetings.com	consumer.relations@amgreetings.com	Zev Weiss	None
American International Group	70 Pine St.	New York	NY	10270	212-770-7000	www.aigcorporate.com	tiger@agf.com	Martin J. Sullivan	None
American National Insurance	1 Moody Plaza	Galveston	TX	77550	409-763-4661	www.anico.com	customerservice@anico.com	Robert L. Moody	None
AmeriCredit	801 Cherry St.	Fort Worth	TX	76102	817-302-7000	www.americredit.com	cassandra.palmer@americredit.com	Daniel E. Berce	None
Amerigroup	4425 Corporation Ln.	Virginia Beach	VA	23462	757-490-6900	www.amerigroupcorp.com	mpsweb@amerigroupcorp.com	James G. Carlson	None
Ameriprise Financial	55 Ameriprise Financial Center	Minneapolis	MN	55474	612-671-3131	www.ameriprise.com	sales@ameriprise.com	James M. Cracchiolo	None
AmerisourceBergen	1300 Morris Dr.	Radnor	PA	19087	610-727-7000	www.amerisourcebergen.com	info@amerisourcebergen.com	R. David Yost	None
Ametek	37 N. Valley Road	Paoli	PA	19301	610-647-2121	www.ametek.com	customerservice@ametek.com	Frank S. Hermance	None
Amgen	1 Amgen Center Dr.	Newbury Park	CA	91320	805-447-1000	www.amgen.com	LicensingOpportunities@amgen.com	Kevin W. Sharer	ksharer@amgen.com
Amkor Technology	1900 S. Price Rd.	Chandler	AZ	85286	480-821-5000	www.amkor.com	marketing@amkor.com	James J. Kim	JKim@amkor.com
Amphenol	358 Hall Ave.	Wallingford	CT	06492	203-265-8900	www.amphenol.com	aphinfo@amphenol.com	Martin H. Loeffler	None
AMR	4333 Amon Carter Blvd.	Fort Worth	TX	76155	817-963-1234	www.aa.com	americanairlines@email.aa.com	Gerard J. Arpey	gerard.arpey@aa.com
Anadarko Petroleum	1201 Lake Robbins Dr.	The Woodlands	TX	77380	832-636-1000	www.anadarko.com	publicaffairs@anadarko.com	James T. Hackett	jim.hackett@anadarko.com
Analog Devices	1 Technology Way	Norwood	MA	02062	781-329-4700	www.analog.com	info@analog.com	Jerald G. Fishman	jerald.fishman@analog.com
Andersons	480 W. Dussel Dr.	Maumee	OH	43537	419-893-5050	www.andersonsinc.com	gary_smith@andersonsinc.com	Michael J. Anderson	None
Andrew	3 Westbrook Corporate Center, Ste. 900	Westchester	IL	60154	708-236-6600	www.andrew.com	communications@commscope.com	Frank M. Drendel	None
Anheuser-Busch	1 Busch Place	Saint Louis	MO	63118	314-577-2000	www.anheuser-busch.com	None	August A. Busch IV	None
Anixter International	2301 Patriot Blvd.	Glenview Nas	IL	60026	224-521-8000	www.anixter.com	Paul.mentzer@anixter.com	Robert W. Grubbs Jr.	None
Annaly Capital Management	1211 Sixth Ave.	New York	NY	10036	212-696-0100	www.annaly.com	info@annaly.com	Michael A.J. Farrell	None
AnnTaylor Stores	7 Times Square	New York	NY	10036	212-541-3300	www.anntaylor.com	barbara_eisenberg@anntaylor.com	Katherine Krill	None
Aon	200 E. Randolph St.	Chicago	IL	60601	312-381-1000	www.aon.com	suzzanne_ryan@ars.aon.com	Gregory C. Case	gregory_case@aon.com
Apache	2000 Post Oak Blvd.	Houston	TX	77056	713-296-6000	www.apachecorp.com	michele.markey@apachecorp.com	G. Steven Farris	steve.farris@apachecorp.com
Apollo Group	4615 E. Elwood St.	Phoenix	AZ	85040	480-966-5394	www.apollogrp.edu	None	Brian E. Mueller	None
Apple	1 Infinite Loop	Monte Vista	CA	95014	408-996-1010	www.apple.com	eddingsk@apple.com	Steven P. Jobs	steve@mac.com
Applera	301 Merritt 7	Norwalk	CT	06851	203-840-2000	www.applera.com	sales@applera.com	Tony L. White	None
Applied Industrial Technologies	1 Applied Plaza	Cleveland	OH	44115	216-426-4000	www.applied.com	questions@applied.com	David L. Pugh	None
Applied Materials	3050 Bowers Ave.	Santa Clara	CA	95054	408-727-5555	www.appliedmaterials.com	staffing_inquiries@amat.com	Michael R. Splinter	None
Apria Healthcare Group	26220 Enterprise Court	Lake Forest	CA	92630	949-639-2000	www.apria.com	contact_us@apria.com	Lawrence M. Higby	None
AptarGroup	475 W. Terra Cotta Ave.	Crystal Lake	IL	60014	815-477-0424	www.aptargroup.com	info@aptargroup.com	Peter H. Pfeiffer	None
Aramark	1101 Market St.	Philadelphia	PA	19107	215-238-3000	www.aramark.com	feedback@aramark.com	Joseph Neubauer	None
Arch Coal	1 CityPlace Dr.	Creve Coeur	MO	63141	314-994-2700	www.archcoal.com	None	Steven F. Leer	sleer@archcoal.com
Archer Daniels Midland	4666 Faries Pkwy.	Decatur	IL	62525	217-424-5200	www.admworld.com	info@admworld.com	Patricia A. Woertz	patricia.woertz@admworld.com
Arkansas Best	3801 Old Greenwood Rd.	Fort Smith	AR	72903	479-785-6000	www.arkbest.com	info@arkbest.com	Robert A. Davidson	None
Armstrong World Industries	2500 Columbia Ave.	Rohrerstown	PA	17603	717-397-0611	www.armstrong.com	magraham@armstrong.com	Michael D. Lockhart	None
Arrow Electronics	50 Marcus Dr.	Melville	NY	11747	631-847-2000	www.arrow.com	feedback@arrow.com	William E. Mitchell	william.mitchell@arrow.com
Arthur J. Gallagher	2 Pierce Place	Itasca	IL	60143	630-773-3800	www.ajg.com	insightinfo@ajg.com	J. Patrick Gallagher Jr.	None
ArvinMeritor	2135 W. Maple Rd.	Troy	MI	48084	248-435-1000	www.arvinmeritor.com	contact.us@arvinmeritor.com	Charles G. McClure Jr.	None
Asbury Automotive Group	622 Third Ave.	New York	NY	10017	212-885-2500	www.asburyauto.com	INFO@asburyauto.com	Charles R. Oglesby	None
Ashland	50 E. RiverCenter Blvd.	Covington	KY	41012	859-815-3333	www.ashland.com	info@ashland.com	James J. O'Brien Jr.	None
Assurant	1 Chase Manhattan Plaza	New York	NY	10005	212-859-7000	www.assurant.com	None	Robert B. Pollock	None
AT&T	175 E. Houston St.	San Antonio	TX	78205	210-821-4105	www.att.com	None	Randall L. Stephenson	randall.stephenson@att.com
Atmel	2325 Orchard Pkwy.	San Jose	CA	95131	408-441-0311	www.atmel.com	veronique.sablereau@atmel.com	Steven Laub	None
Atmos Energy	5430 L.B.J. Freeway	Dallas	TX	75240	972-934-9227	www.atmosenergy.com	rbest@atmosenergy.com	Robert W. Best	bob.best@atmosenergy.com
Auto-Owners Insurance	6101 Anacapri Blvd.	Lansing	MI	48917	517-323-1200	www.auto-owners.com	onlinebillingservice@aoins.com	Roger L. Looyenga	looyenga.roger@aoins.com
Autodesk	111 McInnis Pkwy.	Civic Center	CA	94903	415-507-5000	www.autodesk.com	authcodes@autodesk.com	Carl Bass	carl.bass@autodesk.com
Autoliv	1320 Pacific Dr.	Auburn Hills	MI	48326	248-475-9000	www.autoliv.com	info@autoliv.com	JanCarlson	jan.carlson@autoliv.com
Automatic Data Processing	1 ADP Blvd.	Roseland	NJ	07068	973-974-5000	www.adp.com	ES_Privacy@adp.com	Gary C. Butler	None
AutoNation	110 S.E. Sixth St.	Fort Lauderdale	FL	33301	954-769-6000	www.autonation.com	cannonm@autonation.com	Michael J. Jackson	None
AutoZone	123 S. Front St.	Memphis	TN	38103	901-495-6500	www.autozone.com	customer.service@autozone.com.	William C. Rhodes III	None
Avery Dennison	150 N. Orange Grove Blvd.	Pasadena	CA	91103	626-304-2000	www.averydennison.com	communications@averydennison.com	Dean A. Scarborough	None
Avis Budget Group	6 Sylvan Way	Parsippany	NJ	07054	973-496-4700	www.avisbudgetgroup.com	John.Barrows@avisbudget.com	Ronald L. Nelson	presidingdirector@avisbudget.com
Avnet	2211 S. 47th St.	Phoenix	AZ	85034	480-643-2000	www.avnet.com	corpsupplierinfo@avnet.com	Roy A. Vallee	None
Avon Products	1345 Sixth Ave.	New York	NY	10105	212-282-5000	www.avoncompany.com	avon.websites@avon.com	Andrea Jung	Andrea.Jung@Avon.com
Baker Hughes	2929 Allen Pkwy.	Houston	TX	77019	713-439-8600	www.bakerhughes.com	geothermal@bakerhughes.com	Chad C. Deaton	chad.deaton@bakerhughes.com
Baldor Electric	5711 R.S. Boreham, Jr. St.	Fort Smith	AR	72901	479-646-4711	www.baldor.com	dwmeaden@baldor.com	John A. McFarland	None
Ball	10 Longs Peak Dr.	Westminster	CO	80021	303-469-3131	www.ball.com	corpinfo@ball.com	R. David Hoover	None
Bank of America Corp.	100 N. Tryon St.	Charlotte	NC	28255	704-386-5681	www.bankofamerica.com	futures@bankofamerica.com	Kenneth D. Lewis	ken.d.lewis@bankofamerica.com
Bank of New York Mellon Corp.	1 Wall St.	New York	NY	10286	212-495-1784	www.bynmellon.com	None	Robert P. Kelly	None
Barnes & Noble	122 Fifth Ave.	New York	NY	10011	212-633-3300	www.barnesandnobleinc.com	customerservice@bn.com	Stephen Riggio	sriggio@bn.com
Barr Pharmaceuticals	225 Summit Ave.	Montvale	NJ	07645	201-930-3300	www.barrlabs.com	CustomerService@barrlabs.com	Bruce L. Downey	None
Baxter International	1 Baxter Pkwy.	Deerfield	IL	60015	847-948-2000	www.baxter.com	fdninfo@baxter.com	Robert L. Parkinson Jr.	None
BB&T Corp.	200 W. Second St.	Winston Salem	NC	27101	336-733-2000	www.bbt.com	opportunity@bbt.com	John A. Allison IV	None
BE Aerospace	1400 Corporate Center Way	West Palm Beach	FL	33414	561-791-5000	www.beaerospace.com	Gaye_Bowles@beaerospace.com	Amin J. Khoury	None
Beacon Roofing Supply	1 Lakeland Park Dr.	Peabody	MA	01960	978-535-7668	www.beaconroofingsupply.com	ezadrozny@beaconroofingsupply.com	Robert R. Buck	None
Bear Stearns	383 Madison Ave.	New York	NY	10179	212-272-2000	www.bearstearns.com	banker@bearstearns.com	Alan D. Schwartz	aschwartz@bear.com
BearingPoint	1676 International Dr.	West Mclean	VA	22102	703-747-3000	www.bearingpoint.com	denise.stone@bearingpoint.com	F. Edwin Harbach	None
Beckman Coulter	4300 N. Harbor Blvd.	Fullerton	CA	92835	714-871-4848	www.beckmancoulter.com	hematology@beckmancoulter.com	Scott Garrett	None
Becton Dickinson	1 Becton Dr.	Franklin Lakes	NJ	07417	201-847-6800	www.bd.com	customer_support@bd.com	Edward J. Ludwig	None
Bed Bath & Beyond	650 Liberty Ave.	Union	NJ	07083	908-688-0888	www.bedbathandbeyond.com	customer.service@bedbath.com	Steven H. Temares	steven.temares@bedbath.com
Belden	7701 Forsyth Blvd.	Clayton	MO	63105	314-854-8000	www.belden.com	tech@belden.com	John S. Stroup	None
Belk	2801 W. Tyvola Rd.	Charlotte	NC	28217	704-357-1000	www.belk.com	suzanne_mcinturff@belk.com	Thomas M. Belk Jr.	None
Bemis	1 Neenah Center	Neenah	WI	54956	920-727-4100	www.bemis.com	contactbemis@bemis.com	Henry J. Theisen	None
Benchmark Electronics	3000 Technology Dr.	Angleton	TX	77515	979-849-6550	www.bench.com	info@bench.com	Cary T. Fu	None
Berkshire Hathaway	1440 Kiewit Plaza	Omaha	NE	68131	402-346-1400	www.berkshirehathaway.com	berkshire@berkshirehathaway.com	Warren E. Buffett	None
Berry Plastics Group	101 Oakley St.	Evansville	IN	47710	812-424-2904	www.berryplastics.com	telemkt@berryplastics.com	Ira G. Boots	None
Best Buy	7601 Penn Ave. S.	Richfield	MN	55423	612-291-1000	www.bestbuy.com	brad.anderson@bestbuy.com	Bradbury H. Anderson	brad.anderson@bestbuy.com
Big Lots	300 Phillipi Rd.	Lincoln Village	OH	43228	614-278-6800	www.biglots.com	TALK2US@BIGLOTS.COM	Steven S. Fishman	None
Biogen Idec	14 Cambridge Center	Cambridge	MA	02142	617-679-2000	www.biogenidec.com	generalinformation@syntnx.com	James C. Mullen	None
Biomet	56 E. Bell Dr.	Warsaw	IN	46582	574-267-6639	www.biomet.com	bergares@biomet.com	Jeffrey R. Binder	None
BJ Services	4601 Westway Pk. Blvd.	Houston	TX	77041	713-462-4239	www.bjservices.com	info@bjservices.com	James W. Stewart	Douglas.McCallum@ebay.com
BJ's Wholesale Club	1 Mercer Rd.	Natick	MA	01760	508-651-7400	www.bjs.com	membercare@bjs.accentonline.com	Herbert J. Zarkin	None
Black & Decker	701 E. Joppa Rd.	Towson	MD	21286	410-716-3900	www.bdk.com	customerservice@bdappliancestore.com	Nolan D. Archibald	nolan.archibald@bdk.com
BlackRock	40 E. 52nd St.	New York	NY	10022	212-810-5300	www.blackrock.com	bobbie.collins@blackrock.com	Laurence D. Fink	Laurence.fink@blackrock.com
Blackstone Group	345 Park Ave.	New York	NY	10154	212-583-5000	www.blackstone.com	info@blackstone.com	Stephen A. Schwarzman	None
Blockbuster	1201 Elm St.	Dallas	TX	75270	214-854-3000	www.blockbuster.com	blockbuster@custhelp.com	James W. Keyes	None
BlueLinx Holdings	4300 Wildwood Pkwy.	Atlanta	GA	30339	770-953-7000	www.bluelinxco.com	None	Howard S. Cohen	None
Bob Evans Farms	3776 S. High St.	Columbus	OH	43207	614-491-2225	www.bobevans.com	amy.summers@bobevans.com	Steven A. Davis	None
Boeing	100 N. Riverside Plaza	Chicago	IL	60606	312-544-2000	www.boeing.com	wwwmail.boeing2@boeing.com	W. James McNerney Jr.	jim.mcnerney@boeing.com
Boise Cascade Holdings	1111 W. Jefferson St.	Boise	ID	83702	208-384-6161	www.bc.com	WoodProducts@BC.com	W. ThomasStephens	TomStephens@BC.com
Bon-Ton Stores	2801 E. Market St.	East York	PA	17402	717-757-7660	www.bonton.com	furnitureservice@bonton.com.	Byron L. Bergren	bud.bergren@bonton.com
Borders Group	100 Phoenix Dr.	Ann Arbor	MI	48108	734-477-1100	www.bordersgroupinc.com	ccare@bordersstores.com	George L. Jones	None
BorgWarner	3850 Hamlin Rd.	Auburn Hills	MI	48326	248-754-9200	www.borgwarner.com	info@beru.com	Timothy M. Manganello	None
Boston Scientific	1 Boston Scientific Place	Natick	MA	01760	508-650-8000	www.bostonscientific.com	None	James R. Tobin	JTobin@BostonScientific.com
Boyd Gaming	3883 Howard Hughes Parkway	Las Vegas	NV	89169	702-792-7200	www.boydgaming.com	esupplieradmin@boydgaming.com	Keith E. Smith	None
Briggs & Stratton	12301 W. Wirth St.	Milwaukee	WI	53222	414-259-5333	www.briggsandstratton.com	briggswebmaster@custhelp.com	John S. Shiely	None
Brightpoint	2601 Metropolis Parkway	Avon	IN	46168	317-707-2355	www.brightpoint.com	info@brightpoint.com	Robert J. Laikin	None
Brink's	1801 Bayberry Court	Richmond	VA	23226	804-289-9600	www.brinkscompany.com	customercare@Brinks.com	Michael T. Dan	None
Brinker International	6820 L.B.J. Freeway	Dallas	TX	75240	972-980-9917	www.brinker.com	douglas.brooks@brinker.com	Douglas H. Brooks	douglas.brooks@brinker.com
Bristol-Myers Squibb	345 Park Ave.	New York	NY	10154	212-546-4000	www.bms.com	None	James M. Cornelius	jim.cornelius@bms.com
Broadcom	5300 California Ave.	Irvine	CA	92617	949-926-5000	www.broadcom.com	scottc@broadcom.com	Scott A. McGregor	None
Brookdale Senior Living	330 N. Wabash Ave.	Chicago	IL	60611	312-977-3700	www.brookdaleliving.com	info@brookdaleliving.com	W.E. Sheriff	None
Brown Shoe	8300 Maryland Ave.	Clayton	MO	63105	314-854-4000	www.brownshoe.com	bherberich@brownshoe.com	Ronald A. Fromm	None
Brown-Forman	850 Dixie Hwy.	Louisville	KY	40210	502-585-1100	www.brown-forman.com	Brown-Forman@b-f.com	Paul C. Varga	None
Brunswick	1 N. Field Court	Lake Forest	IL	60045	847-735-4700	www.brunswick.com	services@brunswick.com	Dustan E. McCoy	dusty.mccoy@brunswick.com
Building Materials Holding	4 Embarcadero Center	San Francisco	CA	94111	415-627-9100	www.bmhc.com	info@bmhc.com	Robert E. Mellor	None
Burger King Holdings	5505 Blue Lagoon Dr.	Miami	FL	33126	305-378-3000	www.bk.com	None	John W. Chidsey	jchidsey@whopper.com
Burlington Coat Factory	1830 Route 130 N.	Burlington	NJ	08016	609-387-7800	www.burlingtoncoatfactory.com	hr.support@coat.com	Mark A. Nesci	
Burlington Northern Santa Fe	2650 Lou Menk Dr.	Fort Worth	TX	76131	800-795-2673	www.bnsf.com	electronicap@bnsf.com	Matthew K. Rose	matthew.rose@bnsf.com
C.H. Robinson Worldwide	14701 Charlson Rd.	Eden Prairie	MN	55347	952-937-8500	www.chrobinson.com	214-mgr@chrobinson.com	John P. Wiehoff	None
C.R. Bard	730 Central Ave.	New Providence	NJ	07974	908-277-8000	www.crbard.com	bard.helpline@crbard.com	Timothy M. Ring	None
CA	1 CA Plaza	Islandia	NY	11749	631-342-6000	www.ca.com	customerprograms@ca.com	John A. Swainson	None
Cabela's	1 Cabela Dr.	Sidney	NE	69160	308-254-5505	www.cabelas.com	corporate@cabelas.com	Dennis Highby	None
Cablevision Systems	1111 Stewart Ave.	Bethpage	NY	11714	516-803-2300	www.cablevision.com	info@cablevision.com	James L. Dolan	jdolan@cablevision.com
Cabot	2 Seaport Lane	Boston	MA	02210	617-345-0100	www.cabot-corp.com	karen_morrissey@cabot-corp.com	Patrick M. Prevost	None
CACI International	1100 N. Glebe Rd.	Arlington	VA	22201	703-841-7800	www.caci.com	CACIrecruitingteam@caci.com	Paul M. Cofoni	None
Calpine	50 W. San Fernando St.	San Jose	CA	95113	408-995-5115	www.calpine.com	CalpineWeb@calpine.com	Robert P. May	None
Calumet Specialty Products	2780 Waterford Pkwy. E. Dr.	Eagle Creek	IN	46214	317-328-5660	www.calumetspecialty.com	info@calumetlubricants.com	F. William Grube	None
Cameron International	1333 W. Loop S.	Houston	TX	77027	713-513-3300	www.c-a-m.com	None	Jack B. Moore	None
Campbell Soup	1 Campbell Place	Camden	NJ	08103	856-342-4800	www.campbellsoupcompany.com	HK_CS@campbellsoup.com	Douglas R. Conant	None
Capital One Financial	1680 Capital One Dr.	West Mclean	VA	22102	703-720-1000	www.capitalone.com	webinfo@capitalone.com	Richard D. Fairbank	None
Cardinal Health	7000 Cardinal Place	Dublin	OH	43017	614-757-5000	www.cardinal.com	communityrelations@cardinalhealth.com	R. Kerry Clark	None
Career Education	2895 Greenspoint Pkwy.	Hoffman Estates	IL	60169	847-781-3600	www.careered.com	None	Gary E. McCullough	None
Carlisle	13925 Ballantyne Corporate Place	Charlotte	NC	28277	704-501-1100	www.carlisle.com	info@carlisle.com	David A. Roberts	None
CarMax	12800 Tuckahoe Creek Pkwy.	Richmond	VA	23238	804-747-0422	www.carmax.com	
Carpenter Technology	2 Meridian Blvd.	Wyomissing	PA	19610	610-208-2000	www.cartech.com	CPP@cartech.com	Anne Stevens	None
Casey's General Stores	1 Convenience Blvd.	Ankeny	IA	50021	515-965-6100	www.caseys.com	info@caseys.com	Robert J. Myers	robert.myers@caseys.com
Caterpillar	100 N.E. Adams St.	Peoria	IL	61629	309-675-1000	www.cat.com	CATir@cat.com	James W. Owens	jim.owens@cat.com
CB Richard Ellis Group	11150 Santa Monica Blvd.	Los Angeles	CA	90025	310-405-8900	www.cbre.com	carmen.cortes@cbre.com	Brett White	brett.white@cbre.com
CBRL Group	305 Hartmann Dr.	Lebanon	TN	37088	615-443-5533	www.cbrlgroup.com	fastmail@crackerbarrel.com	Michael A. Woodhouse	None
CBS	51 W. 52nd St.	New York	NY	10019	212-975-4321	www.cbscorporation.com	support@cbsouternet.com	Leslie Moonves	les.moonves@cbs.com
Celanese	1601 W. L.B.J. Freeway	Farmers Branch	TX	75234	972-443-4000	www.celanese.com	info.pvoh@celanese.com	David N. Weidman	david.weidman@celanse.com
Centene	7711 Carondelet Ave.	Clayton	MO	63105	314-725-4477	www.centene.com	communication@centene.com	Michael F. Neidorff	None
CenterPoint Energy	1111 Louisiana St.	Houston	TX	77002	713-207-1111	www.centerpointenergy.com	info@reliantenergy.nl	David M. McClanahan	david.mcclanahan@CenterPointEnergy.com
Centex	2728 N. Harwood St.	Dallas	TX	75201	214-981-5000	www.centex.com	contactus@CentexInsurance.com	Timothy R. Eller	None
Central Garden & Pet	1340 Treat Blvd.	Walnut Creek	CA	94597	925-948-4000	www.centralgardenandpet.com	info@centralgp.com	William E. Brown	None
Century Aluminum	2511 Garden Rd.	Del Rey Oaks	CA	93940	831-642-9300	www.centuryaluminum.com	aposti@centuryca.com	Logan W. Kruger	None
CenturyTel	100 CenturyTel Dr.	Monroe	LA	71203	318-388-9000	www.centurytel.com	stacy.havlik@centurytel.com	Glen F. Post III	None
Cenveo	201 Broad St.	Stamford	CT	06901	203-595-3000	www.cenveo.com	info@cenveo.com	Robert G. Burton Sr.	robert.burton@cenveo.com
Cephalon	41 Moores Rd.	Frazer	PA	19355	610-344-0200	www.cephalon.com	humanresources@cephalon.com	Frank Baldino Jr.	fbaldino@cephalon.com
CF Industries Holdings	4 Parkway N.	Deerfield	IL	60015	847-405-2400	www.cfindustries.com	cfcs@cfindustries.com	Stephen R. Wilson	None
CH2M Hill	9191 S. Jamaica St.	Englewood	CO	80112	303-771-0900	www.ch2m.com	feedback@ch2m.com	Ralph R. Peterson	rpeterson@ch2m.com
Chaparral Steel	300 Ward Rd.	Midlothian	TX	76065	972-775-8241	www.chapusa.com	rancevic@gerdauameristeel.com	Mario Longhi	None
Charles Schwab	120 Kearny St.	San Francisco	CA	94108	415-636-7000	www.aboutschwab.com	public.relations@schwab.com	Charles R. Schwab	None
Charming Shoppes	450 Winks Lane	Bensalem	PA	19020	215-245-9100	www.charmingshoppes.com	cscsutomerservice@charmingshoppes.com	Dorrit J. Bern	None
Charter Communications	12405 Powerscourt Dr.	Des Peres	MO	63131	314-965-0555	www.charter.com	nsmit@charter.com	Neil Smit	neil.smit@chartercom.com
Chemtura	199 Benson Road	Middlebury	CT	06749	203-573-2000	www.chemtura.com	janet.gilboy@chemtura.com	Robert L. Wood	None
Chesapeake Energy	6100 N. Western Ave.	Oklahoma City	OK	73118	405-848-8000	www.chk.com	oinquirydo@chk.com	Aubrey K. McClendon	None
Chevron	6001 Bollinger Canyon Rd.	San Ramon	CA	94583	925-842-1000	www.chevron.com	ptarabini@chevron.com	David J. O'Reilly	None
Chico's FAS	11215 Metro Pkwy.	Fort Myers	FL	33966	239-277-6200	www.chicos.com	customerservice@chicos.com	Scott A. Edmonds	None
Children's Place Retail Stores	915 Secaucus Rd.	Secaucus	NJ	07094	201-558-2400	www.childrensplace.com	None	Charles K. Crovitz	None
Chiquita Brands International	250 E. Fifth St.	Cincinnati	OH	45202	513-784-8000	www.chiquita.com	customerservice@chiquita.com	Fernando Aguirre	None
CHS	5500 Cenex Dr.	Inver Grove Heig	MN	55077	651-355-6000	www.chsinc.com	info@chsinc.com	John D. Johnson	john.johnson@chsinc.com
Chubb	15 Mountain View Rd.	Warren	NJ	07061	908-903-2000	www.chubb.com	info@chubb.com	John D. Finnegan	None
Church & Dwight	469 N. Harrison St.	Princeton	NJ	08543	609-683-5900	www.churchdwight.com	alison.lukacsko@churchdwight.com	James R. Craigie	None
Cigna	2 Liberty Place	Philadelphia	PA	19192	215-761-1000	www.cigna.com	info@cigna.com	H. Edward Hanway	None
Cincinnati Financial	6200 S. Gilmore Rd.	Fairfield	OH	45014	513-870-2000	www.cinfin.com	cfc_corporate@cinfin.com	John J. Schiff Jr.	None
Cinemark Holdings	3900 Dallas Pkwy.	Plano	TX	75093	972-665-1000	www.cinemark.com	intheatre@ncm.com.	Alan W. Stock	None
Cintas	6800 Cintas Blvd.	Cincinnati	OH	45262	513-459-1200	www.cintas.com	info@cintas.com	Scott D. Farmer	None
Circuit City Stores	9950 Mayland Dr.	Ridge	VA	23233	804-486-4000	www.circuitcity.com	CustomerCare@cc.circuitcity.com	Philip J. Schoonover	None
Cisco Systems	170 W. Tasman Dr.	San Jose	CA	95134	408-526-4000	www.cisco.com	cs-support-us@cisco.com	John T. Chambers	john.chambers@cisco.com
CIT Group	505 Fifth Ave.	New York	NY	10017	212-771-0505	www.cit.com	customerservice@xlservicing.com	Jeffrey M. Peek	None
Citigroup	399 Park Ave.	New York	NY	10043	212-559-1000	www.citigroup.com	None	Vikram S. Pandit	None
Citizens Communications	3 High Ridge Park	Ridgeway	CT	06905	203-614-5600	www.czn.net	Citizens@czn.com	Mary Agnes Wilderotter	None
Clear Channel Communications	200 E. Basse Rd.	Alamo Heights	TX	78209	210-822-2828	www.clearchannel.com	ContactUs@clearchannelint.com	Mark P. Mays	MarkPMays@clearchannel.com
Cleveland-Cliffs	1100 Superior Ave.	Cleveland	OH	44114	216-694-5700	www.cleveland-cliffs.com	information@cleveland-cliffs.com	Joseph A. Carrabba	None
Clorox	1221 Broadway	Oakland	CA	94612	510-271-7000	www.thecloroxcompany.com	None	Donald R. Knauss	don.knauss@clorox.com
CME Group	20 S. Wacker Dr.	Chicago	IL	60606	312-930-1000	www.cmegroup.com	info@cmegroup.com	Craig S. Donohue	craig.donohue@cmegroup.com
CMS Energy	1 Energy Plaza	Jackson	MI	49201	517-788-0550	www.cmsenergy.com	info@cmsenergy.com	David W. Joos	None
Coach	516 W. 34th St.	New York	NY	10001	212-594-1850	www.coach.com	comments@coach.com	Lew Frankfort	None
Coca-Cola	1 Coca-Cola Plaza	Atlanta	GA	30313	404-676-2121	www.thecoca-colacompany.com	pressinquiries@na.ko.com	E. Neville Isdell	nisdell@na.ko.com
Coca-Cola Enterprises	2500 Windy Ridge Pkwy.	Atlanta	GA	30339	770-989-3000	www.cokecce.com	ccemail@cokecce.com.	John F. Brock	j.brock@cokecce.com
Cognizant Technology Solutions	500 Frank W. Burr Blvd.	Teaneck	NJ	07666	201-801-0233	www.cognizant.com	alan.alper@cognizant.com	Francisco D'Souza	None
Colgate-Palmolive	300 Park Ave.	New York	NY	10022	212-310-2000	www.colgate.com	directors@colpal.com	Ian M. Cook	None
Collective Brands	3231 SE Sixth Ave.	Topeka	KS	66607	785-233-5171	www.collectivebrands.com	scicero@gcigroup.com	Matthew E. Rubel	None
Colonial Bancgroup	100 Colonial Bank Blvd.	Montgomery	AL	36117	334-676-5000	www.colonialbank.com	colonialbank@markmonitor.com	Robert E. Lowder	None
Comcast	1 Comcast Center	Philadelphia	PA	19103	215-286-1700	www.comcast.com	comcast@einfo.comcast.net	Brian L. Roberts	brian.roberts@comcast.com
Comerica	1717 Main St.	Dallas	TX	75201	214-969-6476	www.comerica.com	info@comerica.com	Ralph W. Babb Jr.	None
Commerce Bancorp	1701 Rt. 70 E.	Cherry Hill	NJ	08034	856-751-9000	www.commerceonline.com	corpcard.sales@commercebank.com	Bharat B. Masrani	None
Commerce Group	211 Main St.	Dudley Hill	MA	01570	508-943-9000	www.commerceinsurance.com	Generalcomments@Commerceinsurance.com	Gerald Fels	None
Commercial Metals	6565 N. MacArthur Blvd.	Irving	TX	75039	214-689-4300	www.cmc.com	Debbie.Okle@cmc.com	Murray R. McClean	murray.mcclean@cmc.com
CommScope	1100 CommScope Pl., S.E.	Hickory	NC	28602	828-324-2200	www.commscope.com	support.team@andrew.com	Frank M. Drendel	None
Community Health Systems	4000 Meridian Blvd.	Franklin	TN	37067	615-465-7000	www.chs.net	Corporate_Communications@chs.net	Wayne T. Smith	None
Complete Production Services	11700 Old Katy Rd.	Houston	TX	77079	281-372-2300	www.completeproduction.com	mmayer@completeproduction.com	Joseph C. Winkler	None
Computer Sciences	3170 Fairview Park Dr.	Mosby	VA	22042	703-876-1000	www.csc.com	jleiter@csc.com	Michael W. Laphen	mlaphen@csc.com
Con-way	2855 Campus Dr.	San Mateo	CA	94403	650-378-5200	www.con-way.com	info@con-way.com	Douglas W. Stotlar	None
ConAgra Foods	1 ConAgra Dr.	Omaha	NE	68102	402-595-4000	www.conagrafoods.com	None	Gary M. Rodkin	None
ConocoPhillips	600 N. Dairy Ashford Rd.	Houston	TX	77079	281-293-1000	www.conocophillips.com	A-CORU@conocophillips.com	James J. Mulva	None
Conseco	11825 N. Pennsylvania St.	Carmel	IN	46032	317-817-6100	www.conseco.com	ir@conseco.com	C. James Prieur	james_prieur@conseco.com
Consol Energy	1800 Washington Rd.	Upper Saint Clai	PA	15241	412-831-4000	www.consolenergy.com	info@consolenergy.com	J. Brett Harvey	brettharvey@consolenergy.com
Consolidated Edison	4 Irving Place	New York	NY	10003	212-460-4600	www.conedison.com	customerservice@coned.com	Kevin Burke	None
Constellation Brands	370 Woodcliff Dr.	Fairport	NY	14450	585-218-3600	www.cbrands.com	paul.middlebrook@cbrands.com	Robert S. Sands	robert.sands@cbrands.com
Constellation Energy	750 E. Pratt St.	Baltimore	MD	21202	410-783-2800	www.constellation.com	communications@constellation.com	Mayo A. Shattuck III	mayo.shattuck@constellation.com
Continental Airlines	1600 Smith St.	Houston	TX	77002	713-324-2950	www.continental.com	geninfo@coair.com	Lawrence W. Kellner	larry.kellner@continental.com
Convergys	201 E. 4th St.	Cincinnati	OH	45202	513-723-7000	www.convergys.com	marketing@convergys.com	David F. Dougherty	None
Cooper Tire & Rubber	701 Lima Ave.	Findlay	OH	45840	419-423-1321	www.coopertire.com	info@coopertire.com	Roy V. Armes	None
Cooper-Standard Holdings	39550 Orchard Hill Place Dr.	Novi	MI	48375	248-596-5900	www.cooperstandard.com	info@cooperstandard.com	James S. McElya	None
Core-Mark Holding	395 Oyster Point Blvd.	South San Franci	CA	94080	650-589-9445	www.coremark.com	support@coremark.com	J. Michael Walsh	mwalsh@coremark.com
Corn Products International	5 Westbrook Corporate Ctr.	Westchester	IL	60154	708-551-2600	www.cornproducts.com	corpcomm@cornproducts.com	Samuel C. Scott III	None
Corning	1 Riverfront Plaza	Corning	NY	14831	607-974-9000	www.corning.com	Inquiries@corning.com	Wendell P. Weeks	None
Costco Wholesale	999 Lake Dr.	Issaquah	WA	98027	425-313-8100	www.costco.com	NationalMembershipPrograms@costco.com	James D. Sinegal	None
Country Insurance & Fin. Svcs.	1701 N. Towanda Ave.	Bloomington	IL	61702	309-821-3000	www.countryfinancial.com	accountaccess@countryinvestment.com	John D. Blackburn	john.blackburn@countryfinancial.com
Countrywide Financial	4500 Park Granada	Calabasas	CA	91302	818-225-3000	www.countrywide.com	customersolutions1@countrywide.com	Angelo R. Mozilo	angelo_mozilo@countrywide.com
Covance	210 Carnegie Center	Princeton	NJ	08540	609-452-4440	www.covance.com	info@covance.com	Joseph L. Herring	None
Coventry Health Care	6705 Rockledge Dr.	West Bethesda	MD	20817	301-581-0600	www.cvty.com	None	Dale B. Wolf	None
Crane	100 First Stamford Pl.	Stamford	CT	06902	203-363-7300	www.craneco.com	crfdn@craneco.com	Eric C. Fast	None
Crosstex Energy	2501 Cedar Springs Rd.	Dallas	TX	75201	214-953-9500	www.crosstexenergy.com	allysia.emerson@crosstexenergy.com	Barry E. Davis	barry.davis@crosstexenergy.com
Crown Holdings	1 Crown Way	Philadelphia	PA	19154	215-698-5100	www.crowncork.com	michael.dunleavy@crowncork.com	John W. Conway	None
CSK Auto	645 E. Missouri Ave.	Phoenix	AZ	85012	602-265-9200	www.cskauto.com	ajohnson@cskauto.com	Lawrence N. Mondry	None
CSX	500 Water St.	Jacksonville	FL	32202	904-359-3200	www.csx.com	the_greenbrier@greenbrier.com	Michael J. Ward	None
Cummins	500 Jackson St.	Columbus	IN	47201	812-377-5000	www.cummins.com	pgamail@cummins.com	Theodore M. Solso	None
CUNA Mutual Group	5910 Mineral Point Rd.	Madison	WI	53705	608-238-5851	www.cunamutual.com	jim.buchheim@cunamutual.com	Jeffrey Post	None
CVR Energy	2277 Plaza Dr.	Sugar Land	TX	77479	281-207-3200	www.cvrenergy.com	info@cvrenergy.com	John J. Lipinski	None
CVS Caremark	1 CVS Dr.	North Smithfield	RI	02895	401-765-1500	www.cvs.com	customercare@cvs.com	Thomas M. Ryan	None
Cytec Industries	5 Garret Mountain Plaza	West Paterson	NJ	07424	973-357-3100	www.cytec.com	custinfo@cytec.com	David Lilley	None
D.R. Horton	301 Commerce St.	Fort Worth	TX	76102	817-390-8200	www.drhorton.com	lbaptiste@drhorton.com	Donald J. Tomnitz	None
Dana Holding	4500 Dorr St.	Toledo	OH	43615	419-535-4500	www.dana.com	SpicerParts@dana.com	Gary L. Convis	None
Danaher	2099 Pennsylvania Ave. N.W.	Washington	DC	20006	202-828-0850	www.danaher.com	info@danaher.com	H. Lawrence Culp Jr.	None
Darden Restaurants	5900 Lake Ellenor Dr.	Pine Castle	FL	32809	407-245-4000	www.darden.com	dardeninfo@darden.com	Clarence Otis Jr.	cotis@darden.com
DaVita	601 Hawaii St.	El Segundo	CA	90245	310-536-2400	www.davita.com	Careers@davita.com	Kent J. Thiry	None
Dean Foods	2515 McKinney Ave.	Dallas	TX	75201	214-303-3400	www.deanfoods.com	pauline_mendez@deanfoods.com	Gregg L. Engles	None
Deere	1 John Deere Place	Moline	IL	61265	309-765-8000	www.johndeere.com	None	Robert W. Lane	LaneRobertW@JohnDeere.com
Del Monte Foods	1 Market St.	San Francisco	CA	94105	415-247-3000	www.delmonte.com	Contact-US-Executive-Office@freshdelmonte.com	Richard G. Wolford	None
Dell	1 Dell Way	Round Rock	TX	78682	512-338-4400	www.dell.com	info@dell.com	Michael S. Dell	michael_dell@dell.com
Delphi	5725 Delphi Dr.	Troy	MI	48098	248-813-2000	www.delphi.com	None	Rodney O'Neal	rodney.oneal@delphi.com
Delta Air Lines	1030 Delta Blvd.	Hapeville	GA	30354	404-715-2600	www.delta.com	info@delta.com	Richard H. Anderson	richard.anderson@delta.com
Dentsply International	221 W. Philadelphia St.	York	PA	17405	717-845-7511	www.dentsply.com	info@dentsply.com	Bret W. Wise	None
Devon Energy	20 N. Broadway	Oklahoma City	OK	73102	405-235-3611	www.devonenergy.com	DevonRevenueHotline@dvn.com	J. Larry Nichols	None
Dick's Sporting Goods	300 Industry Dr.	Pittsburgh	PA	15275	724-273-3400	www.dickssportinggoods.com	groupsales@dickssportinggoods.com	Edward W. Stack	None
Dillard's	1600 Cantrell Rd.	Little Rock	AR	72201	501-376-5200	www.dillards.com	questions@dillards.com	William Dillard II	None
DirecTV Group	2230 E. Imperial Highway	El Segundo	CA	90245	310-964-5000	www.directv.com	chase.carey@directv.com	Chase Carey	chase.carey@directv.com
DISH Network	9601 S. Meridian Blvd.	Englewood	CO	80112	303-723-1000	www.dishnetwork.com	feedback@customermail.dishnetwork.com	Charles W. Ergen	charles.ergen@dishnetwork.com
Dole Food	1 Dole Dr.	Westlake Village	CA	91362	818-879-6600	www.dole.com	dole_consumercenter@na.dole.com.	David A. DeLorenzo	None
Dollar General	100 Mission Ridge	Goodlettsville	TN	37072	615-855-4000	www.dollargeneral.com	CustomerService@dollargeneral.com	Richard W. Dreiling	None
Dollar Thrifty Automotive	5330 E. 31st St.	Tulsa	OK	74135	918-660-7700	www.dtag.com	rhelpdesk@dollar.com	Gary L. Paxton	gary.paxton@dtag.com
Dollar Tree	500 Volvo Parkway	Chesapeake	VA	23320	757-321-5000	www.dollartree.com	info@dollartree.com	Robert Sasser	None
Dominion Resources	120 Tredegar St.	Richmond	VA	23219	804-819-2000	www.dom.com	info@dom.com	Thomas F. Farrell II	None
Donaldson	1400 W. 94 St.	Bloomington	MN	55431	952-887-3131	www.donaldson.com	donaldsonfoundation@mail.donaldson.com	William M. Cook	bcook@mail.donaldson.com
Dover	280 Park Ave.	New York	NY	10017	212-922-1640	www.dovercorporation.com	whistle@fulcruminquiry.com	Ronald L. Hoffman	None
Dow Chemical	2030 Dow Center	Midland	MI	48674	989-636-1000	www.dow.com	PresidingDirector@Dow.com	Andrew N. Liveris	anliveris@dow.com
Dresser-Rand Group	1200 W. Sam Houston Pkwy. N.	Houston	TX	77043	713-467-2221	www.dresser-rand.com	info@dresser-rand.com	Vincent R. Volpe Jr.	None
DRS Technologies	5 Sylvan Way	Parsippany	NJ	07054	973-898-1500	www.drs.com	patw@drs.com	Mark S. Newman	None
DST Systems	333 W. 11th St.	Kansas City	MO	64105	816-435-1000	www.dstsystems.com	ir@dstsystems.com	Thomas A. McDonnell	None
DTE Energy	2000 Second Ave.	Detroit	MI	48226	313-235-4000	www.dteenergy.com	None	Anthony F. Earley Jr.	None
Duane Reade Holdings	440 Ninth Ave.	New York	NY	10001	212-273-5700	www.duanereade.com	info@duanereade.com	David D'Arezzo	None
Duke Energy	526 S. Church St.	Charlotte	NC	28202	704-594-6200	www.duke-energy.com	ContactUs@duke-energy.com	James E. Rogers	jim.rogers@duke-energy.com
Dun & Bradstreet	103 JFK Parkway	Short Hills	NJ	07078	973-921-5500	www.dnb.com	dnbusnationalcustomerrelations@dnb.com	Steven W. Alesio	None
DuPont	1007 Market St.	Wilmington	DE	19898	302-774-1000	www.dupont.com	personalprotection@usa.dupont.com	Charles O. Holliday Jr.	None
DynCorp International	3190 Fairview Park Dr.	Mosby	VA	22042	571-722-0210	www.dyn-intl.com	inquiry@dyn-intl.com	Herbert J. Lanese	None
Dynegy	1000 Louisiana St.	Houston	TX	77002	713-507-6400	www.dynegy.com	scm@dynegy.com	Bruce A. Williamson	None
E*Trade Financial	135 East 57th St.	New York	NY	10022	646-521-4300	www.etrade.com	tellmemore@etrade.com	R. Jarrett Lilien	None
E.W. Scripps	312 Walnut St.	Cincinnati	OH	45202	513-977-3000	www.scripps.com	corpcomm@scripps.com	Kenneth W. Lowe	None
Eastman Chemical	200 S. Wilcox Dr.	Bloomingdale	TN	37660	423-229-2000	www.eastman.com	udomain@eastman.com	J. Brian Ferguson	None
Eastman Kodak	343 State St.	Rochester	NY	14650	585-724-4000	www.kodak.com	support@kodak.com	Antonio M. Perez	antonio.perez@kodak.com
Eaton	1111 Superior Ave.	Cleveland	OH	44114	216-523-5000	www.eaton.com	InternetQuestions@eaton.com	Alexander M. Cutler	None
eBay	2145 Hamilton Ave.	San Jose	CA	95125	408-376-7400	www.ebay.com	cswebhelp@ebay.com	John Donahoe	None
Ecolab	370 Wabasha St. N.	Saint Paul	MN	55102	651-293-2233	www.ecolab.com	info.f&b@ecolab.co.uk	Douglas M. Baker Jr.	None
Edison International	2244 Walnut Grove Ave.	Rosemead	CA	91770	626-302-2222	www.edison.com	edison.gifts@sce.com        employ@sce.com	John E. Bryson	john.bryson@edisonintl.com
El Paso	1001 Louisiana St.	Houston	TX	77002	713-420-2600	www.elpaso.com	ownerrelations@elpaso.com	Douglas L. Foshee	None
Electronic Arts	209 Redwood Shores Pkwy.	Redwood City	CA	94065	650-628-1500	www.ea.com	None	John S. Riccitiello	jriccitiello@ea.com
Electronic Data Systems	5400 Legacy Dr.	Plano	TX	75024	972-604-6000	www.eds.com	Info@eds.com	Ronald A. Rittenmeyer	ronald.rittenmeyer@eds.com
Eli Lilly	Lilly Corporate Center	Indianapolis	IN	46285	317-276-2000	www.lilly.com	None	John C. Lechleiter	jlechleiter@lilly.com
Embarq	5454 W. 110th St.	Leawood	KS	66211	913-323-4637	www.embarq.com	customerservice@embarq.com	Thomas A. Gerke	tom.gerke@embarq.com
EMC	176 South St.	Hopkinton	MA	01748	508-435-1000	www.emc.com	support@docscience.com	Joseph M. Tucci	None
Emcor Group	301 Merritt 7 Corporate Park	Norwalk	CT	06851	203-849-7800	www.emcorgroup.com	emcor_info@emcorgroup.com	Frank T. MacInnis	None
Emerson Electric	8000 W. Florissant Ave.	Jennings	MO	63136	314-553-2000	www.gotoemerson.com	CustServe.Bristol@EmersonProcess.com	David N. Farr	None
Enbridge Energy Partners	1100 Louisiana St.	Houston	TX	77002	713-821-2000	www.enbridgepartners.com	shrrelations@mellon.com	Stephen J.J. Letwin	Steve.letwin@enbridge.com
Energizer Holdings	533 Maryville Univ. Dr.	Creve Coeur	MO	63141	314-985-2000	www.energizer.com	customercare@energizer.com	Ward M. Klein	ward.klein@energizer.com
Energy East	52 Farm View Dr.	New Gloucester	ME	04260	207-688-6300	www.energyeast.com	info@energyeast.com	Wesley W. von Schack	None
Energy Future Holdings	1601 Bryan St.	Dallas	TX	75201	214-812-4600	www.energyfutureholdings.com	Corp.Comm@energyfutureholdings.com	John F. Young	None
Energy Transfer Equity	3738 Oak Lawn Ave.	Dallas	TX	75219	214-981-0700	www.energytransfer.com	InvestorRelations@energytransfer.com.	Kelcy L. Warren	amayfield@energytransfer.com
ENSCO International	500 N. Akard St.	Dallas	TX	75201	214-397-3000	www.enscous.com	ir.hdqrs@enscous.com	Daniel W. Rabun	None
Entergy	639 Loyola Ave.	New Orleans	LA	70113	504-576-4000	www.entergy.com	smacnar@entergy.com	J. Wayne Leonard	None
Enterprise GP Holdings	1100 Louisiana St.	Houston	TX	77002	713-381-6500	www.enterprisegp.com	None	Ralph S. Cunningham	None
EOG Resources	1111 Bagby	Houston	TX	77002	713-651-7000	www.eogresources.com	info@eogresources.com	Mark G. Papa	mark_papa@eogresources.com
Equifax	1550 Peachtree Street N.W.	Atlanta	GA	30309	404-885-8000	www.equifax.com	member.benefits@equifax.com	Richard F. Smith	richard.smith@equifax.com
Equity Residential	2 N. Riverside Plaza	Chicago	IL	60606	312-474-1300	www.equityresidential.com	None	David J. Neithercut	None
Erie Insurance Group	100 Erie Insurance Place	Erie	PA	16530	814-870-2000	www.erieinsurance.com	None	John J. Brinling Jr.	John.Brinling@ERIEinsurance.com
Estee Lauder	767 Fifth Ave.	New York	NY	10153	212-572-4200	www.elcompanies.com	consumercommunications-elc@estee.com	William P. Lauder	None
Exelon	10 S. Dearborn St.	Chicago	IL	60603	312-394-7398	www.exeloncorp.com	info@exeloncorp.com	John W. Rowe	john.w.rowe@exeloncorp.com
Exide Technologies	13000 Deerfield Pkwy.	Alpharetta	GA	30004	678-566-9000	www.exide.com	tbgna@exide.com	Gordon A. Ulsh	gordon.ulsh@exide.com
Expedia	3150 139th Ave. SE	Bellevue	WA	98005	425-679-7200	www.expediainc.com	mktgopp@expedia.com	Dara Khosrowshahi	None
Expeditors International of Washington	1015 Third Ave.	Seattle	WA	98104	206-674-3400	www.expeditors.com	None	Peter J. Rose	peter.rose@expeditors.com
Express Scripts	1 Express Way	Normandy	MO	63121	314-996-0900	www.express-scripts.com	suppliermailbox@express-scripts.com	George Paz	None
ExpressJet Holdings	700 N. Sam Houston Pkwy. W.	Houston	TX	77067	832-353-1000	www.expressjet.com	customerrelations@expressjet.com	James B. Ream	None
Exterran Holdings	4444 Brittmoore Rd.	Houston	TX	77041	713-335-7000	www.exterran.com	Total_Solutions@Exterran.com	Stephen A. Snider	stephen.snider@exterran.com
Exxon Mobil	5959 Las Colinas Blvd.	Irving	TX	75039	972-444-1000	www.exxonmobil.com	info@exxonmobil.com	Rex W. Tillerson	rex.tillerson@exxonmobil.com
Fairchild Semiconductor Intl.	82 Running Hill Road	South Portland	ME	04106	207-775-8100	www.fairchildsemi.com	sales@rocelec.com <	Mark S. Thompson	None
Family Dollar Stores	10401 Monroe Rd.	Stallings	NC	28105	704-847-6961	www.familydollar.com	hrservicecenter@familydollar.com	Howard R. Levine	hlevine@familydollar.com
Fannie Mae	3900 Wisconsin Ave. N.W.	Washington	DC	20016	202-752-7000	www.fanniemae.com	headquarters@fanniemae.com	Daniel H. Mudd	None
Fastenal	2001 Theurer Blvd.	Goodview	MN	55987	507-454-5374	www.fastenal.com	info@fastenal.com	Willard D. Oberton	None
Federal-Mogul	26555 Northwestern Highway	Southfield	MI	48033	248-354-7700	www.federal-mogul.com	fmpurchasing@federalmogul.com	Jose Maria Alapont	None
FedEx	942 S. Shady Grove Rd.	Memphis	TN	38120	901-818-7500	www.fedex.com	inquiry@fedex.com	Frederick W. Smith	None
Ferrellgas Partners	7500 College Blvd.	Lenexa	KS	66210	913-661-1500	www.ferrellgas.com	CustomerConnection@ferrellgas.com.	James E. Ferrell	None
Ferro	1000 Lakeside Ave.	Cleveland	OH	44114	216-641-8580	www.ferro.com	harveyr@ferro.com	James F. Kirsch	None
Fidelity National Financial	601 Riverside Ave.	Jacksonville	FL	32204	904-854-8100	www.fnf.com	IMS@fnis.com	Alan L. Stinson	None
Fidelity National Information Services	601 Riverside Ave.	Jacksonville	FL	32204	904-854-8100	www.fidelityinfoservices.com	consumer.inquire@fnis.com	Lee A. Kennedy	None
Fifth Third Bancorp	38 Fountain Square Plaza	Cincinnati	OH	45263	513-534-5300	www.53.com	info@53.com	Kevin T. Kabat	None
First American Corp.	1 First American Way	Santa Ana Height	CA	92707	714-250-3000	www.firstam.com	sales@firstam.com	Parker S. Kennedy	None
First Data	6200 S. Quebec St.	Cherry Hills Vil	CO	80111	303-967-8000	www.firstdatacorp.com	fdc.ir@firstdata.com	Michael Capellas	None
First Horizon National Corp.	165 Madison Ave.	Memphis	TN	38103	901-523-4444	www.fhnc.com	allthingsfinancial@firsthorizon.com	Gerald L. Baker	None
FirstEnergy	76 S. Main St.	Akron	OH	44308	800-736-3402	www.firstenergycorp.com	SupplierSupport@firstenergycorp.com	Anthony J. Alexander	None
Fiserv	255 Fiserv Dr.	Brookfield	WI	53045	262-879-5000	www.fiserv.com	general_info@fiserv.com	Jeffery W. Yabuki	None
Fleetwood Enterprises	3125 Myers St.	Riverside	CA	92503	951-351-3500	www.fleetwood.com	001HSGService@fleetwood.com	Elden L. Smith	elden.smith@fleetwood.com
Flowers Foods	1919 Flowers Circle	Thomasville	GA	31757	229-226-9110	www.flowersfoods.com	None	George E. Deese	None
Flowserve	5215 N. O'Connor Blvd.	Irving	TX	75039	972-443-6500	www.flowserve.com	intercom@flowserve.com	Lewis M. Kling	None
Fluor	6700 Las Colinas Blvd.	Irving	TX	75039	469-398-7000	www.fluor.com	chemicals@fluor.com	Alan L. Boeckmann	alan.boeckmann@fluor.com
FM Global	1301 Atwood Ave.	Cranston	RI	02919	401-275-3000	www.fmglobal.com	servicedesk.myrisk@fmglobal.com	Shivan S. Subramaniam	None
FMC	1735 Market St.	Philadelphia	PA	19103	215-299-6000	www.fmc.com	None	William G. Walter	None
FMC Technologies	1803 Gears Rd.	Houston	TX	77067	281-591-4000	www.fmctechnologies.com	corporate.info@fmcti.com	Peter D. Kinnear	None
Foot Locker	112 W. 34th St.	New York	NY	10120	212-720-3700	www.footlocker-inc.com	None	Matthew D. Serra	None
Ford Motor	1 American Rd.	Dearborn	MI	48126	313-322-3000	www.ford.com		Alan R. Mulally	alan.mulally@ford.com
Forest Laboratories	909 Third Ave.	New York	NY	10022	212-421-7850	www.frx.com	contactus@frx.com	Howard Soloman	howard.solomon@frx.com
Fortune Brands	520 Lake Cook Rd.	Deerfield	IL	60015	847-484-4400	www.fortunebrands.com	mail@fortunebrands.com	Bruce A. Carbonari	None
FPL Group	700 Universe Blvd.	North Palm Beach	FL	33408	561-694-4000	www.fplgroup.com	ec_edi@fpl.com	Lewis Hay III	None
Franklin Resources	1 Franklin Pkwy.	San Mateo	CA	94403	650-312-2000	www.franklintempleton.com	None	Gregory E. Johnson	None
Fred's	4300 New Getwell Rd.	Memphis	TN	38118	901-365-8880	www.fredsinc.com	fredsonlinesupport@fredsinc.com	Michael J. Hayes	None
Freddie Mac	8200 Jones Branch Dr.	West Mclean	VA	22102	703-903-2000	www.freddiemac.com	corprel@freddiemac.com	Richard F. Syron	richard.syron@freddiemac.com
Freeport-McMoRan Copper & Gold	1 N. Central Ave.	Phoenix	AZ	85004	602-366-8100	www.fcx.com	fcx_communications@fmi.com	Richard C. Adkerson	None
Frontier Oil	10000 Memorial Dr.	Houston	TX	77024	713-688-9600	www.frontieroil.com	hr@frontieroil-den.com.	James R. Gibbs	None
Furniture Brands International	101 S. Hanley Rd.	Clayton	MO	63105	314-863-1100	www.furniturebrands.com	jbotsford@furniturebrands.com	Ralph P. Scozzafava	None
GameStop	625 Westport Pkwy.	Grapevine	TX	76051	817-424-2000	www.gamestop.com	orders@gamestop.com <orders@gamestop.com>	R. Richard Fontaine	None
Gannett	7950 Jones Branch Dr.	McLean	VA	22107	703-854-6000	www.gannett.com	gcishare@gannett.com	Craig A. Dubow	None
Gap	2 Folsom St.	San Francisco	CA	94105	650-952-4400	www.gapinc.com	custserv@gap.com	Glenn K. Murphy	None
Gardner Denver	1800 Gardner Expwy.	Quincy	IL	62305	217-222-5400	www.gardnerdenver.com	pd.blowers@gardnerdenver.com	Barry L. Pennypacker	None
General Cable	4 Tesseneer Dr.	Newport	KY	41076	859-572-8000	www.generalcable.com	info@generalcable.com	Gregory B. Kenny	gkenny@generalcable.com
General Dynamics	2941 Fairview Park Dr.	Mosby	VA	22042	703-876-3000	www.generaldynamics.com	wm4gd@gendyn.com	Nicholas D. Chabraja	None
General Electric	3135 Easton Turnpike	Fairfield	CT	06828	203-373-2211	www.ge.com	info@ge.com	Jeffrey R. Immelt	None
General Growth Properties	110 N. Wacker Dr.	Chicago	IL	60606	312-960-5000	www.ggp.com	general.properties@ggp.com	John Bucksbaum	john.bucksbaum@ggp.com
General Mills	1 General Mills Blvd.	Saint Louis Park	MN	55426	763-764-7600	www.generalmills.com	Corporate.Response@genmills.com	Kendall J. Powell	None
General Motors	300 Renaissance Center	Detroit	MI	48265	313-556-5000	www.gm.com	john.m.devine@gm.com	G. Richard Wagoner Jr.	richard.wagoner@gm.com
Genuine Parts	2999 Circle 75 Pkwy.	Atlanta	GA	30339	770-953-1700	www.genpt.com	webmaster@genpt.com	Thomas C. Gallagher	None
Genworth Financial	6620 W. Broad St.	West End	VA	23230	804-281-6000	www.genworth.com	contactus@genworth.com	Michael D. Fraizer	None
Genzyme	500 Kendall St.	Cambridge	MA	02142	617-252-7500	www.genzyme.com	cholestageleurope@genzyme.com	Henri A. Termeer	None
Georgia Gulf	115 Perimeter Center Place	Atlanta	GA	30346	770-395-4500	www.ggc.com	creditmail@ggc.com	Paul D. Carrico	None
Gilead Sciences	333 Lakeside Dr.	Foster City	CA	94404	650-574-3000	www.gilead.com	public_affairs@gilead.com	John C. Martin, Ph.D.	john.martin@gilead.com
Global Partners	800 South St.	Waltham	MA	02453	781-894-8800	www.globalp.com	info@globalp.com	Eric Slifka	eslifka@globalp.com
GMAC	200 Renaissance Center	Detroit	MI	48265	313-556-5000	www.gmacfs.com	investor.relations@gmacfs.com	Alvaro G. de Molina	None
Goldman Sachs Group	85 Broad St.	Governors Island	NY	10004	212-902-1000	www.gs.com	None	Lloyd C. Blankfein	Blankfein@gs.com
Goodrich	2730 W. Tyvola Rd.	Charlotte	NC	28217	704-423-7000	www.goodrich.com	None	Marshall O. Larsen	None
Goodyear Tire & Rubber	1144 E. Market St.	Akron	OH	44316	330-796-2121	www.goodyear.com	goodyearep@digiknow.com	Robert J. Keegan	robert.keegan@goodyear.com
Google	1600 Amphitheatre Pkwy.	Mountain View	CA	94043	650-253-0000	www.google.com	press@google.com	Eric E. Schmidt	None
Graham Packaging	2401 Pleasant Valley Rd.	East York	PA	17402	717-849-8500	www.grahampackaging.com	graham.specialtycontainers@grahampackaging.com	Warren D. Knowlton	None
Granite Construction	585 W. Beach St.	La Selva Beach	CA	95076	831-724-1011	www.graniteconstruction.com	info@gcinc.com	William G. Dorey	None
Grant Prideco	400 N. Sam Houston Pkwy. E.	Houston	TX	77060	281-878-8000	www.grantprideco.com	qhse@grantprideco.com.	Michael McShane	None
Graphic Packaging	814 Livingston Court	Marietta	GA	30067	770-644-3000	www.graphicpkg.com	patti.gettinger@graphicpkg.com	David W. Scheible	None
Graybar Electric	34 N. Meramec Ave.	Clayton	MO	63105	314-573-9200	www.graybar.com	info@graybar.com	Robert A. Reynolds Jr.	None
Great Atlantic & Pacific Tea	2 Paragon Dr.	Montvale	NJ	07645	201-573-9700	www.aptea.com	apcustomerrel@aptea.com	Eric Claus	clause@aptea.com
Great Plains Energy	1201 Walnut St.	Kansas City	MO	64106	816-556-2200	www.greatplainsenergy.com	custserv@kcpl.com.	Michael J. Chesser	None
Greif	425 Winter Road	Delaware	OH	43015	740-549-6000	www.greif.com	tammy.drumheller@greif.com	Michael J. Gasser	None
Group 1 Automotive	950 Echo Lane	Houston	TX	77024	713-647-5700	www.group1auto.com	benefits@group1auto.com	Earl J. Hesterberg	None
Guardian Life Ins. Co. of America	7 Hanover Square	Governors Island	NY	10004	212-598-8000	www.guardianlife.com	marketcc@glic.com	Dennis J. Manning	None
Guess	1444 S. Alameda St.	Los Angeles	CA	90021	213-765-3100	www.guess.com	customerservice@guess.com	Paul Marciano	None
H&R Block	1 H&amp;R Block Way	Kansas City	MO	64105	816-854-3000	www.hrblock.com	customersupport@hrblock.com	Alan M. Bennett	None
H.J. Heinz	600 Grant St.	Uptown	PA	15219	412-456-5700	www.heinz.com	info@heinz.com	William R. Johnson	None
Halliburton	1401 McKinney St.	Houston	TX	77010	713-759-2600	www.halliburton.com	None	David J. Lesar	David.Lesar@halliburton.com
Hanesbrands	1000 E. Hanes Mill Rd.	Winston Salem	NC	27105	336-519-4400	www.hanesbrands.com	None	Richard A. Noll	None
Hanover Insurance Group	440 Lincoln St.	Worcester	MA	01653	508-855-1000	www.hanover.com	None	Frederick H. Eppinger Jr.	None
Harley-Davidson	3700 W. Juneau Ave.	Milwaukee	WI	53208	414-342-4680	www.harley-davidson.com	licensingdept@harley-davidson.com	James L. Ziemer	None
Harman International Industries	1101 Pennsylvania Ave. N.W.	Washington	DC	20004	202-393-1101	www.harman.com	info@harman.com	Dinesh C. Paliwal	dpaliwal@harman.com
Harrah's Entertainment	1 Caesars Palace Dr.	Las Vegas	NV	89109	702-407-6000	www.harrahs.com	None	Gary W. Loveman	None
Harris	1025 W. NASA Blvd.	Melbourne	FL	32919	321-727-9100	www.harris.com	webmaster@harris.com	Howard L. Lance	None
Harsco	350 Poplar Church Rd.	Shiremanstown	PA	17011	717-763-7064	www.harsco.com	info@multiserv.com	Salvatore D. Fazzolari	sfazzolari@harsco.com
Hartford Financial Services	1 Hartford Plaza	Hartford	CT	06155	860-547-5000	www.thehartford.com	lifeservice@hartfordlife.com	Ramani Ayer	ramani.ayer@thehartford.com
Hasbro	1027 Newport Ave.	Pawtucket	RI	02862	401-431-8697	www.hasbro.com	hasbro@custhelp.com	Alfred J. Verrecchia	averrecchia@hasbro.com
Hawaiian Electric Industries	900 Richards St.	Honolulu	HI	96813	808-543-5662	www.hei.com	shollinger@hei.com, invest@hei.com	Constance H. Lau	clau@hei.com
Hayes Lemmerz	15300 Centennial Dr.	Northville	MI	48168	734-737-5000	www.hayes-lemmerz.com	naaw@hayes-lemmerz.com	Curtis J. Clawson	kclawson@hayes-lemmerz.com
HCA	1 Park Plaza	Nashville	TN	37203	615-344-9551	www.hcahealthcare.com	sales@healthtrustpg.com	Jack O. Bovender Jr.	
HCC Insurance Holdings	13403 NW Freeway	Jersey Village	TX	77040	713-690-7300	www.hcc.com	investorrelations@hcc.com	Frank J. Bramanti	None
Health Management Associates	5811 Pelican Bay Blvd.	Naples	FL	34108	239-598-3131	www.hma.com	info@hma.com	Burke W. Whitman	None
Health Net	21650 Oxnard St.	Woodland Hills	CA	91367	818-676-6000	www.healthnet.com	netsoft@health.net	Jay M. Gellert	None
HealthExtras	800 King Farm Blvd.	Rockville	MD	20850	301-548-2900	www.healthextras.com	info@healthextras.com	David T. Blair	
HealthSouth	1 HealthSouth Pkwy.	Cahaba Heights	AL	35243	205-967-7116	www.healthsouth.com	None	Jay Grinney	JayGrinney@healthsouth.com
Helix Energy Solutions Group	400 N. Sam Houston Pkwy.	Houston	TX	77060	281-618-0400	www.helixESG.com	recruit-hrds@helixesg.com	Owen Kratz	None
Helmerich & Payne	1437 S. Boulder Ave.	Tulsa	OK	74119	918-742-5531	www.hpinc.com	human.resources@hpinc.com	Hans Helmerich	None
Henry Schein	135 Duryea Rd.	Melville	NY	11747	631-843-5500	www.henryschein.com	dentsls@henryschein.com	Stanley M. Bergman	None
Hercules	1313 N. Market St.	Wilmington	DE	19894	302-594-5000	www.herc.com	crogerson@herc.com	Craig A. Rogerson	crogerson@herc.com
Herman Miller	855 E. Main Ave.	Zeeland	MI	49464	616-654-3000	www.hermanmiller.com	robert_richardson@hermanmiller.com	Brian C. Walker	None
Hershey	100 Crystal A Dr.	Hershey	PA	17033	717-534-4200	www.hersheys.com	None	David J. West	david.west@thehersheycompany.com
Hertz Global Holdings	225 Brae Blvd.	Park Ridge	NJ	07656	201-307-2000	www.hertz.com	gold_service_uk@hertz.com	Mark P. Frissora	Mark.Frissora@hertz.com
Hess	1185 Ave. of the Americas	New York	NY	10036	212-997-8500	www.hess.com	CorporateCommunications@hess.com	John B. Hess	john.hess@hess.com
Hewitt Associates	100 Half Day Rd.	Prairie View	IL	60069	847-295-5000	www.hewitt.com	infoaustralia@hewitt.com	Russell P. Fradin	None
Hewlett-Packard	3000 Hanover St.	Palo Alto	CA	94304	650-857-1501	www.hp.com	info@hp.com	Mark V. Hurd	mark.hurd@hp.com
Hexion Specialty Chemicals	180 E. Broad St.	Columbus	OH	43215	614-225-4000	www.hexion.com	4information@hexion.com	Craig O. Morrison	None
Hill-Rom Holdings	1069 State Rte. 46 E.	Batesville	IN	47006	812-934-7000	www.hillenbrand.com	nancy.nobbe@hill-rom.com	Peter H. Soderberg	None
HNI	408 E. Second St.	Muscatine	IA	52761	563-272-7400	www.hnicorp.com	info@hnicorp.com	Stanley A. Askren	None
Holly	100 Crescent Court	Dallas	TX	75201	214-871-3555	www.hollycorp.com	hr@hollycorp.com	Matthew P. Clifton	None
Home Depot	2455 Paces Ferry Rd. N.W.	Atlanta	GA	30339	770-433-8211	www.homedepot.com	customercare@homedepot.com	Francis S. Blake	Frank_Blake@homedepot.com
Honeywell International	101 Columbia Rd.	Morris Township	NJ	07962	973-455-2000	www.honeywell.com	webcontentsupport@honeywell.com	David M. Cote	dave.cote@honeywell.com
Hormel Foods	1 Hormel Place	Austin	MN	55912	507-437-5611	www.hormelfoods.com	cresponse@hormel.com	Jeffrey M. Ettinger	None
Hospira	275 N. Field Dr.	Lake Forest	IL	60045	224-212-2000	www.hospira.com	one2one@hospira.com	Christopher B. Begley	None
Host Hotels & Resorts	6903 Rockledge Dr.	West Bethesda	MD	20817	240-744-1000	www.hosthotels.com	info@hosthotels.com	W. Edward Walter	None
Hovnanian Enterprises	110 W. Front St.	Suburban	NJ	07701	732-747-7800	www.khov.com	ahovnanian@khov.com	Ara K. Hovnanian	None
Hub Group	3050 Highland Pkwy.	Downers Grove	IL	60515	630-271-3600	www.hubgroup.com	CASupport@hubgroup.com	David P. Yeager	None
Hubbell	584 Derby Milford Rd.	Orange	CT	06477	203-799-4100	www.hubbell.com	info@hubbell.com	Timothy H. Powers	None
Hudson City Bancorp	W. 80 Century Rd.	Paramus	NJ	07652	201-967-1900	www.hcsbonline.com	None	Ronald E. Hermance Jr.	rhermance@hcsbnj.com
Humana	500 W. Main St.	Louisville	KY	40202	502-580-1000	www.humana.com	None	Michael B. McCallister	None
Huntington Bancshares	41 S. High St.	Columbus	OH	43287	614-480-8300	www.huntington.com	direct@huntington.com	Thomas E. Hoaglin	None
Huntsman	500 Huntsman Way	Salt Lake City	UT	84108	801-584-5700	www.huntsman.com	info@huntsman.com	Peter R. Huntsman	Peter_R_Huntsman@huntsman.com
IAC/InterActiveCorp	555 W. 18th St.	New York	NY	10011	212-314-7300	www.iac.com	info@iac.com	Barry Diller	None
Iasis Healthcare	117 Seaboard Lane	Franklin	TN	37067	615-844-2747	www.iasishealthcare.com	info@iasishealthcare.com	David R. White	None
Icahn Enterprises	767 Fifth Ave.	New York	NY	10153	212-702-4300	www.icahnenterprises.com	None	Keith A. Meister	None
Idearc	2200 W. Airfield Dr.	Dallas/Ft. Worth Airport	TX	75261	972-453-7000	www.idearc.com	idearc@computershare.com	Frank P. Gatto	None
IDT	520 Broad St.	Newark	NJ	07102	973-438-1000	www.idt.net	idtvoicelinesupport@idt.net	James A. Courter	None
Ikon Office Solutions	70 Valley Stream Pkwy.	Frazer	PA	19355	610-296-8000	www.ikon.com	mespe@ikon.com	Matthew J. Espe	None
Illinois Tool Works	3600 W. Lake Ave.	Glenview Nas	IL	60026	847-724-7500	www.itw.com	contact_us@itw.com	David B. Speer	None
Imation	1 Imation Way	Oakdale	MN	55128	651-704-4000	www.imation.com	None	Frank P. Russomanno	None
IMS Health	901 Main Ave.	Norwalk	CT	06851	203-845-5200	www.imshealth.com	None	David R. Carlucci	None
IndyMac Bancorp	888 E. Walnut St.	Pasadena	CA	91101	800-669-2300	www.imb.com	None	Michael W. Perry	michael.perry@imb.com
Ingles Markets	2913 U.S. Hwy. 70 W.	Black Mountain S	NC	28711	828-669-2941	www.ingles-markets.com	None	Robert P. Ingle	None
Ingram Micro	1600 E. St. Andrew Place	Cowan Heights	CA	92705	714-566-1000	www.ingrammicro.com	IMLsales@ingrammicro.com	Gregory M.E. Spierkel	None
Insight Enterprises	1305 W. Auto Dr.	Tempe	AZ	85284	480-902-1001	www.insight.com	None	Richard A. Fennessy	None
Integrys Energy Group	130 E. Randolph Dr.	Chicago	IL	60601	312-228-5400	www.integrysgroup.com	None	Larry L. Weyers	None
Intel	2200 Mission College Blvd.	Santa Clara	CA	95054	408-765-8080	www.intel.com	info@intel.com	Paul S. Otellini	paul.otellini@intel.com
Interactive Brokers Group	1 Pickwick Plaza	Byram	CT	06830	203-618-5800	www.interactivebrokers.com	help@interactivebrokers.com	Thomas Peterffy	None
International Assets Holding	220 E. Central Pkwy.	Altamonte Spring	FL	32701	407-741-5300	www.intlassets.com	sbranch@intlassets.com	Sean M. O'Connor	SOConnor@intlassets.com
International Business Machines	1 New Orchard Rd.	Armonk	NY	10504	914-499-1900	www.ibm.com	ews@us.ibm.com	Samuel J. Palmisano	None
International Game Technology	9295 Prototype Dr.	Reno	NV	89521	775-448-7777	www.igt.com	IGTSystemsCustomerSatisfaction@IGT.com	Thomas J. Matthews	None
International Paper	6400 Poplar Ave.	Memphis	TN	38197	901-419-7000	www.internationalpaper.com	None	John V. Faraci	None
Interpublic Group	1114 Sixth Ave.	New York	NY	10036	212-704-1200	www.interpublic.com	david.weiss@interpublic.com	Michael I. Roth	None
Interstate Bakeries	12 E. Armour Blvd.	Kansas City	MO	64111	816-502-4000	www.interstatebakeriescorp.com	support@interstatebakeriescorp.com	Craig D. Jung	None
Intuit	2700 Coast Avenue	Mountain View	CA	94043	650-944-6000	www.intuit.com	site_feedback@intuit.com	Brad D. Smith	Brad_Smith2@intuit.com
Iron Mountain	745 Atlantic Ave.	Boston	MA	02111	617-535-4766	www.ironmountain.com	info@emailmanagementsuite.com	C. Richard Reese	Richard.reese@ironmountain.com
ITT	4 W. Red Oak Lane	East White Plain	NY	10604	914-641-2000	www.itt.com	mailto:%20andy.hilton@itt.com	Steven R. Loranger	None
J.B. Hunt Transport Services	615 J.B. Hunt Corporate Dr.	Lowell	AR	72745	479-820-0000	www.jbhunt.com	general@jbhunt.com	Kirk Thompson	kirk_thompson@jbhunt.com
J.C. Penney	6501 Legacy Dr.	Plano	TX	75024	972-431-1000	www.jcpenney.net	None	Myron E. Ullman III	None
J.M. Smucker	1 Strawberry Lane	Orrville	OH	44667	330-682-3000	www.smucker.com	investor.relations@jmsmucker.com		None
J.P. Morgan Chase & Co.	270 Park Ave.	New York	NY	10017	212-270-6000	www.jpmorganchase.com	jpmam.info@jpmorgan.com	James Dimon	None
Jabil Circuit	10560 Dr. Martin Luther King Jr. St. N.	Saint Petersburg	FL	33716	727-577-9749	www.jabil.com	dave_emerson@jabil.com	Timothy L. Main	None
Jack in the Box	9330 Balboa Ave.	San Diego	CA	92123	858-571-2121	www.jackinthebox.com	franchise.sales@jackinthebox.com	Linda A. Lang	None
Jacobs Engineering Group	1111 S. Arroyo Pkwy.	Pasadena	CA	91105	626-578-3500	www.jacobs.com	contactus@jacobs.com	Craig L. Martin	
Jarden	555 Theodore Fremd Ave.	Rye	NY	10580	914-967-9400	www.jarden.com	inquiries@nationalcity.com	Martin E. Franklin	None
Jefferies Group	520 Madison Ave.	New York	NY	10022	212-284-2300	www.jefferies.com	portfoliotrading@Jefferies.com	Richard B. Handler	None
JetBlue Airways	118-29 Queens Blvd.	Forest Hills	NY	11375	718-286-7900	www.jetblue.com	CorporateCommunications@jetblue.com	David Barger	None
Jo Ann Stores	5555 Darrow Road	Hudson	OH	44236	330-656-2600	www.joann.com	customercare@joann.com	Darrell D. Webb	None
Johnson & Johnson	1 Johnson &amp; Johnson Plaza	New Brunswick	NJ	08933	732-524-0400	www.jnj.com	jnj-admin@corus.jnj.com	William C. Weldon	wweldon@jnj.com
Johnson Controls	5757 N. Green Bay Ave.	Milwaukee	WI	53201	414-524-1200	www.johnsoncontrols.com	info@johnsoncontrols.com	Stephen A. Roell	None
JohnsonDiversey	8310 16th St.	Sturtevant	WI	53177	262-631-4001	www.johnsondiversey.com	idea.submission@johnsondiversey.com	Edward F. Lonergan	None
Jones Apparel Group	1411 Broadway	New York	NY	10018	212-642-3860	www.jny.com	legal@jny.com	Wesley R. Card	None
Jones Lang LaSalle	200 E. Randolph Dr.	Chicago	IL	60601	312-782-5800	www.joneslanglasalle.com	info@am.jll.com	Colin Dyer	
Joy Global	100 E. Wisconsin Ave.	Milwaukee	WI	53202	414-319-8500	www.joyglobal.com	gzagoudis@frbir.com	Michael W. Sutherlin	None
Juniper Networks	1194 N. Mathilda Ave.	Sunnyvale	CA	94089	408-745-2000	www.juniper.net	correspondence@cc.juniper.com	Scott G. Kriens	None
Kansas City Southern	427 W. 12th St.	Kansas City	MO	64105	816-983-1303	www.kcsouthern.com	mhaverty@kcsouthern.com	Michael R. Haverty	None
KB Home	10990 Wilshire Blvd.	Los Angeles	CA	90024	310-231-4000	www.kbhome.com	customerrelations@KBHome.com	Jeffrey T. Mezger	jmezger@kbhome.com
KBR	601 Jefferson St.	Houston	TX	77002	713-753-3011	www.kbr.com	info@kbr.com	William P. Utt	bill.utt@kbr.com
Kellogg	1 Kellogg Square	Battle Creek	MI	49016	269-961-2000	www.kelloggcompany.com	carol.ebanks@kellogg.com	A.D. David Mackay	None
Kelly Services	999 W. Big Beaver Rd.	Troy	MI	48084	248-362-4444	www.kellyservices.com	kfirst@kellyservices.com (general inquiries)	Carl T. Camden	None
Kennametal	1600 Technology Way	Latrobe	PA	15650	724-539-5000	www.kennametal.com	ftmill.service@kennametal.com	Carlos M. Cardoso	None
Key Energy Services	1301 McKinney St.	Houston	TX	77010	713-651-4300	www.keyenergy.com	None	Richard J. Alario	None
KeyCorp	127 Public Square	Cleveland	OH	44114	216-689-6300	www.key.com	EducationRes@KeyBank.com	Henry L. Meyer III	None
Kimberly-Clark	351 Phelps Dr.	Irving	TX	75038	972-281-1200	www.kimberly-clark.com	None	Thomas J. Falk	thomas.j.falk@kcc.com
Kindred Healthcare	680 S. Fourth St.	Louisville	KY	40202	502-596-7300	www.kindredhealthcare.com	None	Paul J. Diaz	None
King Pharmaceuticals	501 5th St.	Bristol	TN	37620	423-989-8000	www.kingpharm.com	None	Brian A. Markison	None
Kla-Tencor	160 Rio Robles	San Jose	CA	95134	408-875-3000	www.kla-tencor.com	info@kla-tencor.com	Richard P. Wallace	None
Knight	500 Dallas St.	Houston	TX	77002	713-369-9000	www.kindermorgan.com	km_web@kindermorgan.com	Richard D. Kinder	
Knights of Columbus	1 Columbus Plaza	New Haven	CT	06510	203-752-4000	www.kofc.org	info@kofc.org	Carl A. Anderson	carl.anderson@kofc.org
Kohl's	N56 W17000 Ridgewood Dr.	Menomonee Falls	WI	53051	262-703-7000	www.kohls.com	Customer.Service@Kohls.com	R. Lawrence Montgomery	larry.montgomery@kohls.com
Kraft Foods	3 Lakes Dr.	Northfield	IL	60093	847-646-2000	www.kraft.com	None	Irene B. Rosenfeld	None
Kroger	1014 Vine St.	Cincinnati	OH	45202	513-762-4000	www.kroger.com	kroger.investors@kroger.com	David B. Dillon	david.dillon@kroger.com
L-3 Communications	600 Third Ave.	New York	NY	10016	212-697-1111	www.L-3com.com	None	Michael T. Strianese	None
La-Z-Boy	1284 N. Telegraph Rd.	Monroe	MI	48162	734-242-1444	www.la-z-boy.com	info@lazboy.com	Kurt L. Darrow	None
Laboratory Corp. of America	358 S. Main St.	Glen Raven	NC	27215	336-229-1127	www.labcorp.com	commaff@labcorp.com	David P. King	dave.king@labcorp.com
Laclede Group	720 Olive St.	Saint Louis	MO	63101	314-342-0500	www.thelacledegroup.com	investorservices@lacledegas.com	Douglas H. Yaeger	None
Lam Research	4650 Cushing Parkway	Fremont	CA	94538	510-572-0200	www.lamrc.com	salesinformation@lamrc.com	Stephen G. Newberry	None
Land O'Lakes	4001 Lexington Ave. N.	Shoreview	MN	55126	651-481-2222	www.landolakesinc.com	LRBotham@landolakes.com	Christopher J. Policinski	None
LandAmerica Financial Group	5600 Cox Rd.	Glen Allen	VA	23060	804-267-8000	www.landam.com	customerservice@landam.com	Theodore L. Chandler Jr.	tchandler@landam.com
Landstar System	13410 Sutton Park Dr. S.	Jacksonville	FL	32224	904-398-9400	www.landstar.com	security@landstar.com	Henry H. Gerkens	None
Las Vegas Sands	3355 Las Vegas Blvd. S.	Las Vegas	NV	89109	702-414-1000	www.lasvegassands.com	None	Sheldon G. Adelson	None
Leap Wireless International	10307 Pacific Center Ct.	San Diego	CA	92121	858-882-6000	www.leapwireless.com	glund@leapwireless.com	S. Douglas Hutcheson	None
Lear	21557 Telegraph Rd.	Southfield	MI	48033	248-447-1500	www.lear.com	pvandenboom@lear.com	Robert E. Rossiter	None
Legg Mason	100 Light St.	Baltimore	MD	21202	410-539-0000	www.leggmason.com	webinquiries@leggmason.com	Mark R. Fetting	None
Leggett & Platt	1 Leggett Rd.	Carthage	MO	64836	417-358-8131	www.leggett.com	info@leggett.com	David S. Haffner	None
Lehman Brothers Holdings	745 Seventh Ave.	New York	NY	10019	212-526-7000	www.lehman.com	Index_Feedback@lehman.com	Richard S. Fuld Jr.	None
Lennar	700 N.W. 107th Ave.	Miami	FL	33172	305-559-4000	www.lennar.com	marshall.ames@lennar.com	Stuart A. Miller	stuart.miller@lennar.com
Lennox International	2140 Lake Park Blvd.	Richardson	TX	75080	972-497-5000	www.lennoxinternational.com	karen.o'shea@lennoxintl.com	Todd M. Bluedorn	None
Level 3 Communications	1025 Eldorado Blvd.	Westminster	CO	80021	720-888-1000	www.level3.com	info@level3.com	James Q. Crowe	None
Levi Strauss	1155 Battery St.	San Francisco	CA	94111	415-501-6000	www.levistrauss.com	None	R. John Anderson	kerry.clark@cardinal.com
Lexmark International	740 W. New Circle Rd.	Lexington	KY	40550	859-232-2000	www.lexmark.com	info@lexmark.com	Paul J. Curlander	None
Liberty Global	12300 Liberty Blvd.	Englewood	CO	80112	303-220-6600	www.lgi.com	info@lgi.com	Michael T. Fries	None
Liberty Media	12300 Liberty Blvd.	Englewood	CO	80112	720-875-5400	www.libertymedia.com	info@libertymedia.com	Gregory B. Maffei	None
Liberty Mutual Insurance Group	175 Berkeley St.	Boston	MA	02116	617-357-9500	www.libertymutual.com	PresidentialSvcTeam@libertymutual.com	Edmund F. Kelly	None
LifePoint Hospitals	103 Powell Ct.	Brentwood	TN	37027	615-372-8500	www.lifepointhospitals.com	general.information@lpnt.net	William F. Carpenter III	None
Limited Brands	3 Limited Pkwy.	Gahanna	OH	43230	614-415-7000	www.limitedbrands.com	None	Leslie H. Wexner	None
Lincoln Electric Holdings	22801 St. Clair Ave.	Euclid	OH	44117	216-481-8100	www.lincolnelectric.com	info@lincolnelectric.com	John M. Stropki Jr.	None
Lincoln National	150 N. Radnor Chester Rd.	Radnor	PA	19087	484-583-1400	www.lfg.com	Contact@lincolnfinancialfield.com	Dennis R. Glass	None
Linens Holding	6 Brighton Rd.	Clifton	NJ	07015	973-778-1300	www.lnt.com	vicepresident@lnt.com	Robert J. Di Nicola	rdinicola@lnt.com
Lithia Motors	360 E. Jackson St.	West Main	OR	97501	541-776-6868	www.lithia.com	invest@lithia.com	Sidney B. DeBoer	sdeboer@lithia.com
Live Nation	9348 Civic Center Dr.	Beverly Hills	CA	90210	310-867-7000	www.livenation.com	VWASTL@LiveNation.com	Michael Rapino	None
Liz Claiborne	1441 Broadway	New York	NY	10018	212-354-4900	www.lizclaiborne.com	consumer_relations@liz.com	William L. McComb	None
Lockheed Martin	6801 Rockledge Dr.	West Bethesda	MD	20817	301-897-6000	www.lockheedmartin.com	busdev@lmaasa.com	Robert J. Stevens	None
Loews	667 Madison Ave.	New York	NY	10021	212-521-2000	www.loews.com	IR@loews.com	James S. Tisch	
Longs Drug Stores	141 N. Civic Dr.	Walnut Creek	CA	94596	925-937-1170	www.longs.com	info@longs.com	Warren F. Bryant	None
Louisiana-Pacific	414 Union St.	Nashville	TN	37219	615-986-5600	www.lpcorp.com	marketing.center@lpcorp.com	Richard W. Frost	rick.frost@lpcorp.com
Lowe's	1000 Lowe's Blvd.	Mooresville	NC	28117	704-758-1000	www.lowes.com	execustservice@lowes.com	Robert A. Niblock	robert.a.niblock@lowes.com
LSI	1621 Barber Ln.	Milpitas	CA	95035	408-433-8000	www.lsi.com	None	Abhijit Y. Talwalkar	None
Lubrizol	29400 Lakeland Blvd.	Wickliffe	OH	44092	440-943-4200	www.lubrizol.com	None	James L. Hambrick	jlh@lubrizol.com
M&T Bank Corp.	1 M&amp;T Plaza	Buffalo	NY	14203	716-842-5445	www.mtb.com	None	Robert G. Wilmers	None
Macy's	7 W. Seventh St.	Cincinnati	OH	45202	513-579-7000	www.macysinc.com	None	Terry J. Lundgren	None
Magellan Health Services	55 Nod Rd.	Avon	CT	06001	860-507-1900	www.magellanhealth.com	essomers@magellanhealth.com	Rene Lerer M.D.	None
Manitowoc	2400 S. 44th St.	Manitowoc	WI	54221	920-684-4410	www.manitowoc.com	info@manitowoc.com	Glen E. Tellock	None
Manpower	100 Manpower Place	Milwaukee	WI	53212	414-961-1000	www.manpower.com	Paducah.KY@na.manpower.com	Jeffrey A. Joerres	
Marathon Oil	5555 San Felipe Rd.	Houston	TX	77056	713-629-6600	www.marathon.com	custrelations@marathonpetroleum.com	Clarence P. Cazalot Jr.	None
Markel	4521 Highwoods Pkwy.	Glen Allen	VA	23060	804-747-0136	www.markelcorp.com	information@markelcorp.com	Alan I. Kirshner	akirshner@markelcorp.com
Marriott International	10400 Fernwood Rd.	West Bethesda	MD	20817	301-380-3000	www.marriott.com	None	J.W. Marriott Jr.	None
Marsh & McLennan	1166 Sixth Ave.	New York	NY	10036	212-345-5000	www.mmc.com	mailto:customerservice@marshpm.com	Brian Duperreault	None
Marshall & Ilsley Corp.	770 N. Water St.	Milwaukee	WI	53202	414-765-7700	www.micorp.com	reportfraud@mibank.com	Mark F. Furlong	None
Martin Marietta Materials	2710 Wycliff Rd.	Raleigh	NC	27607	919-781-4550	www.martinmarietta.com	fgd@martinmarietta.com	Stephen P. Zelnak Jr.	None
Masco	21001 Van Born Rd.	Taylor	MI	48180	313-274-7400	www.masco.com	customerservice@kraftmaid.com	Timothy Wadhams	None
Massachusetts Mutual Life Insurance	1295 State St.	Springfield	MA	01111	413-788-8411	www.massmutual.com	customerservice@massmutual.com	Stuart H. Reese	sreese@massmutual.com
Massey Energy	4 N. 4th St.	Richmond	VA	23219	804-788-1800	www.masseyenergyco.com	None	Don L. Blankenship	None
MasterCard	2000 Purchase St.	Purchase	NY	10577	914-249-2000	www.mastercard.com	AdvisorInfo@mastercardadvisors.com	Robert W. Selander	rselander@mastercard.com
Mattel	333 Continental Blvd.	El Segundo	CA	90245	310-252-2000	www.mattel.com	foundation@mattel.com	Robert A. Eckert	robert.eckert@mattel.com
McClatchy	2100 Q Street	Sacramento	CA	95816	916-321-1846	www.mcclatchy.com	ptira@mcclatchy.com	Gary B. Pruitt	None
McCormick	18 Loveton Circle	Glencoe	MD	21152	410-771-7301	www.mccormick.com	ConsumerTesting@McCormick.com	Alan D. Wilson	alan_wilson@mccormick.com
McDonald's	McDonald's Plaza	Oak Brook	IL	60523	630-623-3000	www.mcdonalds.com	info@mcdonalds.com	James A. Skinner	None
McGraw-Hill	1221 Sixth Ave.	New York	NY	10020	212-512-2000	www.mcgraw-hill.com	customer.service@mcgraw-hill.com	Harold W. McGraw III	None
McKesson	1 Post St.	San Francisco	CA	94104	415-983-8300	www.mckesson.com	MHS@mckesson.com	John H. Hammergren	john.hammergren@mckesson.com
MDC Holdings	4350 S. Monaco St.	Denver	CO	80237	303-773-1100	www.richmondamerican.com	communications@mdch.com	Larry A. Mizel	None
MDU Resources Group	1200 W. Century Ave.	Bismarck	ND	58506	701-530-1000	www.mdu.com	webmaster@mduresources.com	Terry D. Hildestad	None
MeadWestvaco	11013 W. Broad St.	Glen Allen	VA	23060	804 327-5200	www.meadwestvaco.com	packaging@meadwestvaco.com	John A. Luke Jr.	None
Medco Health Solutions	100 Parsons Pond Dr.	Franklin Lakes	NJ	07417	201-269-3400	www.medco.com	solutions@medco.com.	David B. Snow Jr.	david_snow@medco.com
Medical Mutual of Ohio	2060 E. Ninth St.	Cleveland	OH	44115	216-687-7000	www.medmutual.com	customerservice@medmutual.com	Kent W. Clapp	None
Medtronic	710 Medtronic Pkwy.	Fridley	MN	55432	763-514-4000	www.medtronic.com	contact@medtronic.com	Arthur D. Collins Jr.	None
MEMC Electronic Materials	501 Pearl Drive	Saint Peters	MO	63376	636-474-5000	www.memc.com	info@memc.com	Nabeel Gareeb	None
Men's Wearhouse	6380 Rogerdale Rd.	Houston	TX	77072	281-776-7200	www.tmw.com	perfectfit@tmw.com	George Zimmer	None
Merck	1 Merck Dr.	Whitehouse Stati	NJ	08889	908-423-1000	www.merck.com	richard.clark@merck.com	Richard T. Clark	richard.clark@merck.com
Mercury General	4484 Wilshire Blvd.	Los Angeles	CA	90010	323-937-1060	www.mercuryinsurance.com	pnelson@mercuryinsurance.com	Gabriel Tirador	None
Meredith	1716 Locust St.	Des Moines	IA	50309	515-284-3000	www.meredith.com	shareholderhelp@meredith.com	Stephen M. Lacy	steve.lacy@meredith.com
Meritage Homes	17851 N. 85 St.	Scottsdale	AZ	85255	480-515-8100	www.meritagehomes.com	austin.info@meritagehomes.com	Steven J. Hilton	shilton@meritagehomes.com
Merrill Lynch	4 World Financial Center	New York	NY	10080	212-449-1000	www.ml.com	general_askml@ml.com	John A. Thain	john.thain@ml.com
Metal Management	325 N. LaSalle St.	Chicago	IL	60610	312-645-0700	www.mtlm.com	sbryce@au.sims-group.com	Daniel W. Dienst	None
Metals USA Holdings	1 Riverway	Houston	TX	77056	713-965-0990	www.metalsusa.com	dbodom@metalsusa.com	C. Lourenco Goncalves	None
MetLife	200 Park Ave.	New York	NY	10166	212-578-2211	www.metlife.com	ask4met@metlifeservice.com	C. Robert Henrikson	None
MetroPCS Communications	2250 Lakeside Blvd.	Richardson	TX	75082	214-570-5800	www.metropcs.com	None	Roger D. Linquist	None
Mettler-Toledo International	1900 Polaris Pkwy.	Columbus	OH	43240	614-438-4511	www.mt.com	Corporate.Communications@mt.com	Olivier A. Filliol	Olivier.Filliol@mt.com
MGIC Investment	250 E. Kilbourn Ave.	Milwaukee	WI	53202	414-347-6480	www.mgic.com	customer_service@mgic.com	Curt S. Culver	curt_culver@mgic.com
MGM Mirage	3600 Las Vegas Blvd. S.	Las Vegas	NV	89109	702-693-7120	www.mgmmirage.com	MemberServices@mgmmirage.com	J. Terrence Lanni	None
Michaels Stores	8000 Bent Branch Dr.	Irving	TX	75063	972-409-1300	www.michaels.com	None	Brian C. Cornell	None
Micron Technology	8000 S. Federal Way	Boise	ID	83716	208-368-4000	www.micron.com	info@micron.com	Steven R. Appleton	None
Microsoft	1 Microsoft Way	Redmond	WA	98052	425-882-8080	www.microsoft.com	None	Steven A. Ballmer	steveballmer@ceo.microsoft.com
Mirant	1155 Perimeter Center W.	Dunwoody	GA	30338	678-579-5000	www.mirant.com	americas@mirant.com	Edward R. Muller	None
Modine Manufacturing	1500 DeKoven Ave.	Racine	WI	53403	262-636-1200	www.modine.com	None	Thomas A. Burke	None
Mohawk Industries	160 S. Industrial Blvd.	Calhoun	GA	30701	706-629-7721	www.mohawkind.com	mohawkind@mohawkind.com	Jeffrey S. Lorberbaum	chris_easler@mohawkind.com
Molex	2222 Wellington Court	Lisle	IL	60532	630-969-4550	www.molex.com	amerinfo@molex.com	Martin P. Slark	martin.slark@molex.com
Molina Healthcare	200 Oceangate	Long Beach	CA	90802	562-435-3666	www.molinahealthcare.com	None	Joseph M. Molina M.D.	mario.molina@molinahealthcare.com
Molson Coors Brewing	1225 17th St.	Denver	CO	80202	303-277-6661	www.molsoncoors.com	corporate.responsibility@molsoncoors.com	W. Leo Kiely III	leo.kiely@coors.com
Monsanto	800 N. Lindbergh Blvd.	St. Louis	MO	63167	314-694-1000	www.monsanto.com	info@monsanto.com	Hugh Grant	hugh.grant@monsanto.com
Moody's	250 Greenwich St.	New York	NY	10007	212-553-0300	www.moodys.com	clientservices@moodys.com	Raymond W. McDaniel Jr.	None
Morgan Stanley	1585 Broadway	New York	NY	10036	212-761-4000	www.morganstanley.com	mediainquiries@morganstanley.com	John J. Mack	None
Mosaic	3033 Campus Dr.	Plymouth	MN	55441	763-577-2700	www.mosaicco.com	mike.rahm@mosaicco.com	James T. Prokopanko	None
Motorola	1303 E. Algonquin Rd.	Schaumburg	IL	60196	847-576-5000	www.motorola.com	custhelp@motorola.com	Gregory Q. Brown	None
MPS Group	1 Independent Dr.	Jacksonville	FL	32202	904-360-2000	www.mpsgroup.com	jacksonville@accountingprincipals.com	Timothy D. Payne	timothy.payne@mpsgroup.com
MSC Industrial Direct	75 Maxess Rd.	Melville	NY	11747	516-812-2000	www.mscdirect.com	branchdpk@mscdirect.com	David Sandler	
Mueller Industries	8285 Tournament Dr.	Memphis	TN	38125	901-753-3200	www.muellerindustries.com	None	William D. O'Hagan	None
Mueller Water Products	1200 Abernathy Road N.E.	Sandy Springs	GA	30328	770-206-4200	www.muellerwaterproducts.com	corporatecommunications@muellerwp.com	Gregory E. Hyland	None
Murphy Oil	200 Peach St.	El Dorado	AR	71730	870-862-6411	www.murphyoilcorp.com	sandiks@murphyoilcorp.com	Claiborne P. Deming	None
Mutual of America Life	320 Park Ave.	New York	NY	10022	212-224-1600	www.mutualofamerica.com	None	Thomas J. Moran	None
Mutual of Omaha Insurance	Mutual of Omaha Plaza	Omaha	NE	68175	402-342-7600	www.mutualofomaha.com	info@mutualofomaha.com	Daniel P. Neary	None
Mylan	1500 Corporate Dr.	Mc Murray	PA	15317	724-514-1800	www.mylan.com	mylan@mylan.com	Robert J. Coury	None
Nacco Industries	5875 Landerbrook Dr.	Lyndhurst Mayfie	OH	44124	440-449-9600	www.nacco.com	info@nacco.com	Alfred M. Rankin Jr.	None
Nalco Holding	1601 W. Diehl Rd.	Naperville	IL	60563	630-305-1000	www.nalco.com	info@nalco.com	J. Erik Fyrwald	fyrwald@dupont.com
Nasdaq OMX Group	1 Liberty Plaza	New York	NY	10006	212-401-8700	www.nasdaq.com	marketsite.events@nasdaq.com	Robert Greifeld	None
Nash-Finch	7600 France Ave. S.	Edina	MN	55435	952-832-0534	www.nashfinch.com	None	Alec C. Covington	None
National City Corp.	1900 E. Ninth St.	Cleveland	OH	44114	216-222-2000	www.nationalcity.com	peter.spizzirri@nationalcity.com	Peter E. Raskind	None
National Fuel Gas	6363 Main St.	Williamsville	NY	14221	716-857-7000	www.natfuel.com	RussellA@natfuel.com	David F. Smith	davids@natfuel.com
National Life Group	1 National Life Dr.	Montpelier	VT	05604	802-229-3333	www.nationallife.com	CustomerRelations@nationallife.com	Thomas H. MacLeay	None
National Oilwell Varco	7909 Parkwood Circle Dr.	Houston	TX	77036	713-346-7500	www.nov.com	None	Merrill A. Miller Jr.	None
National Semiconductor	2900 Semiconductor Dr.	Santa Clara	CA	95052	408-721-5000	www.national.com	Community.Care@nsc.com	Brian L. Halla	None
Nationwide	1 Nationwide Plaza	Columbus	OH	43215	614-249-7111	www.nationwide.com	corpcit@nationwide.com	William G. Jurgensen	jurgenw@nationwide.com
NBTY	90 Orville Dr.	Bohemia	NY	11716	631-567-9500	www.nbty.com	info@amstock.com	Scott Rudolph	None
NCR	1700 S. Patterson Blvd.	Dayton	OH	45479	937-445-5000	www.ncr.com	None	William R. Nuti	william.nuti@ncr.com
Neiman Marcus	1618 Main St.	Dallas	TX	75201	214-743-7600	www.neimanmarcus.com	neimanmarcus@customercare.neimanmarcus.com	Burton M. Tansky	None
Nelnet	121 S. 13th St.	Lincoln	NE	68508	402-458-2370	www.nelnet.net	michael.dunlap@nelnet.net	Michael S. Dunlap	None
NetApp	495 E. Java Dr.	Sunnyvale	CA	94089	408-822-6000	www.netapp.com	mailto:ebrown@netapp.com	Daniel J. Warmenhoven	None
New Jersey Resources	1415 Wyckoff Rd.	Wall	NJ	07719	732-938-1480	www.njresources.com	sitesupport@njresources.com	Laurence M. Downes	None
New York Community Bancorp	615 Merrick Ave.	Westbury	NY	11590	516-683-4100	www.mynycb.com	info@mynycb.com	Joseph R. Ficalora	None
New York Life Insurance	51 Madison Ave.	New York	NY	10010	212-576-7000	www.newyorklife.com	None	Seymour G. Sternberg	None
New York Times	620 8th Ave.	New York	NY	10018	212-556-1234	www.nytco.com	managing-editor@nytimes.com	Janet L. Robinson	jrobinson@nytimes.com
Newell Rubbermaid	10 B Glenlake Pkwy.	Sandy Springs	GA	30328	770-407-3800	www.newellrubbermaid.com	info@newellrubbermaid.com	Mark D. Ketchum	None
Newfield Exploration	363 N. Sam Houston Pkwy. E.	Houston	TX	77060	281-847-6000	www.newfield.com	info@newfld.com	David A. Trice	None
Newmont Mining	1700 Lincoln St.	Denver	CO	80203	303-863-7414	www.newmont.com	support@newmont.com	Richard T. O'Brien	None
NewPage Holding	8540 Gander Creek Dr.	Miamisburg	OH	45342	877-855-7243	www.newpagecorp.com	MWPG_Northeast_Region@newpagecorp.com	Mark A. Suwyn	None
News Corp.	1211 Sixth Ave.	New York	NY	10036	212-852-7000	www.newscorp.com	info@newscorp.com	Keith Rupert Murdoch	None
Nicor	1844 Ferry Rd.	Naperville	IL	60563	630-305-9500	www.nicor.com	customercare@nicor.com	Russ M. Strobel	rstrobe@nicor.com
NII Holdings	10700 Parkridge Blvd.	Reston	VA	20191	703-390-5100	www.nii.com	ivan.montalvo@nii.com	Steven P. Dussek	None
Nike	1 Bowerman Dr.	Beaverton	OR	97005	503-671-6453	www.nikebiz.com	consumer.affairs.grb@nike.com	Mark G. Parker	mark.parker@nike.com
NiSource	801 E. 86th Ave.	Merrillville	IN	46410	877-647-5990	www.nisource.com	mailto:questions@nisource.com	Robert C. Skaggs Jr.	None
Noble Energy	100 Glenborough Dr.	Houston	TX	77067	281-872-3100	www.nobleenergyinc.com	info@nobleenergyinc.com	Charles D. Davidson	None
Nordstrom	1617 Sixth Ave.	Seattle	WA	98101	206-628-2111	www.nordstrom.com	contact@nordstrom.com	Blake W. Nordstrom	None
Norfolk Southern	3 Commercial Place	Norfolk	VA	23510	757-629-2680	www.nscorp.com	hrhelpdesk@nscorp.com	Charles W. Moorman IV	None
Nortek	50 Kennedy Plz.	Providence	RI	02903	401-751-1600	www.nortek-inc.com	general@nortek-inc.com	Richard L. Bready	bready@nortek-inc.com
Northeast Utilities	107 Selden St.	Berlin	CT	06037	860-665-5000	www.nu.com	customerservice@yankeegas.com	Charles W. Shivery	None
Northern Trust Corp.	50 S. LaSalle St.	Chicago	IL	60603	312-630-6000	www.northerntrust.com	None	Frederick H. Waddell	None
Northrop Grumman	1840 Century Park E.	Los Angeles	CA	90067	310-553-6262	www.northropgrumman.com	cheryl.horn@ngc.com	Ronald D. Sugar	None
Northwest Airlines	2700 Lone Oak Pkwy.	Eagan	MN	55121	612-726-2111	www.nwa.com	None	Douglas M. Steenland	Doug.steenland@nwa.com
Northwestern Mutual	720 E. Wisconsin Ave.	Milwaukee	WI	53202	414-271-1444	www.northwesternmutual.com	bencaputo@northwesternmutual.com	Edward J. Zore	None
NRG Energy	211 Carnegie Center	Princeton	NJ	08540	609-524-4500	www.nrgenergy.com	None	David W. Crane	None
NSTAR	800 Boylston St.	Boston	MA	02199	617-424-2000	www.nstaronline.com	customer.service@nstar.com	Thomas J. May	None
Nucor	1915 Rexford Rd.	Charlotte	NC	28211	704-366-7000	www.nucor.com	info@nucor.com	Daniel R. DiMicco	None
Nvidia	2701 San Tomas Expwy.	Santa Clara	CA	95050	408-486-2000	www.nvidia.com	hr@nvidia.com	Jen-Hsun Huang	None
NVR	11700 Plaza America Dr.	Reston	VA	20190	703-956-4000	www.nvrinc.com	jduffy@nvrinc.com	Paul C. Saville	None
NYSE Euronext	11 Wall St.	New York	NY	10005	212-656-3000	www.nyse.com	support@nyx.com	Duncan L. Niederauer	dniederauer@nyse.com
O'Reilly Automotive	233 S. Patterson	Springfield	MO	65802	417-862-6708	www.oreillyauto.com	None	Gregory L. Henslee	None
Occidental Petroleum	10889 Wilshire Blvd.	Los Angeles	CA	90024	310-208-8800	www.oxy.com	information@oxy.com	Ray R. Irani	None
Oceaneering International	11911 FM 529	Houston	TX	77041	713-329-4500	www.oceaneering.com	info@oceaneering.com	T. Jay Collins	None
Office Depot	2200 Old Germantown Rd.	Delray Beach	FL	33445	561-438-4800	www.officedepot.com	mvesentini@officedepot.com	Steve Odland	sodland@officedepot.com
OfficeMax	263 Shuman Blvd.	Naperville	IL	60563	630-438-7800	www.officemax.com	online@officemax.com	Sam K. Duncan	None
OGE Energy	321 N. Harvey Ave.	Oklahoma City	OK	73101	405-553-3000	www.oge.com	custcaredept@oge.com	Peter B. Delaney	None
Oil States International	333 Clay St.	Houston	TX	77002	713-652-0582	www.oilstatesintl.com	None	Cindy B. Taylor	None
Old Republic International	307 N. Michigan Ave.	Chicago	IL	60601	312-346-8100	www.oldrepublic.com	service@ReliableLifeInsurance.com	Aldo C. Zucaro	None
Olin	190 Carondelet Plaza	Clayton	MO	63105	314-480-1400	www.olin.com	olincorpinfo@olin.com	Joseph D. Rupp	None
Omnicare	100 E. RiverCenter Blvd.	Covington	KY	41011	859-392-3300	www.omnicare.com	moreinfo@OmnicareCR.com	Joel F. Gemunder	None
Omnicom Group	437 Madison Ave.	New York	NY	10022	212-415-3600	www.omnicomgroup.com	PublicAffairs@OmnicomGroup.com	John D. Wren	None
Oneok	100 W. Fifth St.	Tulsa	OK	74103	918-588-7000	www.oneok.com	None	John W Gibson	john.gibson@oneok.com
Oracle	500 Oracle Pkwy.	Redwood City	CA	94065	650-506-7000	www.oracle.com	oracleusergroup_ww@oracle.com	Lawrence J. Ellison	larry.ellison@oracle.com
Oshkosh	2307 Oregon St.	Oshkosh	WI	54902	920-235-9151	www.oshkoshcorporation.com	tcihowiak@oshtruck.com	Robert G. Bohn	jobline@oshtruck.com
Owens & Minor	9120 Lockwood Blvd.	Mechanicsville	VA	23116	804-723-7000	www.owens-minor.com	info@owens-minor.com	Craig R. Smith	None
Owens Corning	1 Owens Corning Pkwy.	Toledo	OH	43659	419-248-8000	www.owenscorning.com		Michael H. Thaman	mike.thaman@owenscorning.com
Owens-Illinois	1 Michael Owens Way	Perrysburg	OH	43551	567-336-5000	www.o-i.com	glass@o-i.com	Albert P.L. Stroucken	None
Paccar	777 106th Ave. N.E.	Beaux Arts	WA	98004	425-468-7400	www.paccar.com	mark.hayrynen@paccar.com	Mark C. Pigott	None
Pacer International	2300 Clayton Rd.	Concord	CA	94520	925-887-1400	www.pacer-international.com	info@pacer.com	Michael E. Uremovich	None
Pacific Life	700 Newport Center Dr.	Newport Beach	CA	92660	949-219-3011	www.pacificlife.com	info@pacificlife.com	James T. Morris	None
Packaging Corp. of America	1900 W. Field Ct.	Lake Forest	IL	60045	847-482-3000	www.packagingcorp.com	tgoodwin@packagingcorp.com	Paul T. Stecko	None
Pactiv	1900 W. Field Ct.	Lake Forest	IL	60045	847-482-2000	www.pactiv.com	info@pactiv.com	Richard L. Wambold	None
Pall	2200 Northern Blvd.	Greenvale	NY	11548	516-484-5400	www.pall.com	cssrequest@pall.com, Pall-Austria-Office@pall.com	Eric Krasnoff	pat_iannucci@pall.com
Pantry	1801 Douglas Dr.	Sanford	NC	27331	919-774-6700	www.thepantry.com	Samantha.Kelley@thepantry.com	Peter J. Sodini	None
Parker Hannifin	6035 Parkland Blvd.	Lyndhurst Mayfie	OH	44124	216-896-3000	www.parker.com	racor@parker.com	Donald E. Washkewicz	dwashkewicz@parker.com
Patterson	1031 Mendota Heights Rd.	Eagan	MN	55120	651-686-1600	www.pattersoncompanies.com	None	James W. Wiltz	None
Patterson-UTI Energy	4510 Lamesa Hwy.	Dermott	TX	79549	325-574-6300	www.patenergy.com	investrelations@patenergy.com	Douglas J. Wall	None
Paychex	911 Panorama Trail S.	Panorama	NY	14625	585-385-6666	www.paychex.com	info@paychex.com	Jonathan J. Judge	None
PC Connection	730 Milford Rd.	Merrimack	NH	03054	603-683-2000	www.pcconnection.com	customerservice@pcconnection.com	Patricia Gallup	None
Peabody Energy	701 Market St.	Saint Louis	MO	63101	314-342-3400	www.peabodyenergy.com	pr@peabodyenergy.com	Gregory H. Boyce	gboyce@peabodyenergy.com
Penn National Gaming	825 Berkshire Blvd.	Wyomissing	PA	19610	610-373-2400	www.pngaming.com	pnrc@pngaming.com	Peter M. Carlino	corporate@pngaming.com
Penske Automotive Group	2555 Telegraph Rd.	Bloomfield Towns	MI	48302	248-648-2500	www.penskeautomotive.com	info@penskeautomotive.com	Roger S. Penske	None
Pentair	5500 Wayzata Blvd.	Saint Louis Park	MN	55416	763-545-1730	www.pentair.com	corprecruiting@pentair.com	Randall J. Hogan	None
Pep Boys	3111 W. Allegheny Ave.	Philadelphia	PA	19132	215-430-9000	www.pepboys.com	corporate@pepboys.com	Michael Odell	None
Pepco Holdings	701 Ninth St. N.W.	Washington	DC	20068	202-872-2000	www.pepcoholdings.com	bill.yingling@pepcoholdings.com	Dennis R. Wraase	None
Pepsi Bottling	1 Pepsi Way	Somers	NY	10589	914-767-6000	www.pbg.com	PBGPressCenter@pepsi.com	Eric J. Foss	None
PepsiAmericas	60 S. Sixth St.	Minneapolis	MN	55402	612-661-4000	www.pepsiamericas.com	info@pepsiamericas.com	Robert C. Pohlad	None
PepsiCo	700 Anderson Hill Rd.	Purchase	NY	10577	914-253-2000	www.pepsico.com	complaints@pepsico.com	Indra K. Nooyi	None
Performance Food Group	12500 W. Creek Pkwy.	Richmond	VA	23238	804-484-7700	www.pfgc.com	None	Steven L. Spinner	None
Perini	73 Mt. Wayte Ave.	Framingham	MA	01701	508-628-2000	www.perini.com	info@perini.com	Ronald N. Tutor	None
PerkinElmer	940 Winter St.	Waltham	MA	02451	781-663-6900	www.perkinelmer.com	ProductInfo@perkinelmer.com	Robert F. Friel	Robert.Friel@perkinelmer.com
Perot Systems	2300 W. Plano Pkwy.	Plano	TX	75075	972-577-0000	www.perotsystems.com	consulting@ps.net	Peter A. Altabef	peter.altabef@perotsystems.com
Peter Kiewit Sons'	1000 Kiewit Plaza	Omaha	NE	68131	402-342-2052	www.kiewit.com	equipment@kiewit.com	Bruce E. Grewcock	None
PetSmart	19601 N. 27th Ave.	New River Stage	AZ	85027	623-580-6100	www.petm.com	customercare@petsmart.com	Philip L. Francis	None
Pfizer	235 E. 42nd St.	New York	NY	10017	212-573-2323	www.pfizer.com	requestforpermission@pfizer.com	Jeffrey B. Kindler	Jeff.Kindler@pfizer.com
PG&E Corp.	1 Market St.	San Francisco	CA	94105	415-267-7000	www.pgecorp.com	None	Peter A. Darbee	None
PHH	3000 Leadenhall Rd.	Mount Laurel	NJ	08054	856-917-1744	www.phh.com	customer.service@mortgagefamily.com	Terence W. Edwards	None
Phillips-Van Heusen	200 Madison Ave.	New York	NY	10016	212-381-3500	www.pvh.com	tonymontesano@pvh.com	Emanuel Chirico	None
Phoenix	1 American Row	Hartford	CT	06102	860-403-5000	www.phoenixwm.com	customerservice@phoenixwm.com	Dona Davis Young	dona.young@phoenixwm.com
Piedmont Natural Gas	4720 Piedmont Row Dr.	Charlotte	NC	28210	704-364-3120	www.piedmontng.com	customerselfservice@piedmontng.com	Thomas E. Skains	
Pilgrim's Pride	4845 U.S. Highway 271 N.	Pittsburg	TX	75686	903-434-1000	www.pilgrimspride.com	info@pilgrimspride.com	J. Clinton Rivers	None
Pinnacle West Capital	400 N. Fifth St.	Phoenix	AZ	85072	602-250-1000	www.pinnaclewest.com	shrrelations@bnymellon.com	William J. Post	None
Pioneer Natural Resources	5205 N. O'Connor Blvd.	Irving	TX	75039	972-444-9001	www.pxd.com	pioneer@continentalstock.com	Scott D. Sheffield	None
Pitney Bowes	1 Elmcroft Rd.	Stamford	CT	06926	203-356-5000	www.pb.com	lead.director@pb.com	Murray D. Martin	murray.martin@pb.com
Plains All American Pipeline	333 Clay St.	Houston	TX	77002	713-646-4100	www.paalp.com	info@paalp.com	Greg L. Armstrong	None
Plum Creek Timber	999 Third Ave.	Seattle	WA	98104	206-467-3600	www.plumcreek.com	info@plumcreek.com	Rick R. Holley	rholley@plumcreek.com
PNC Financial Services Group	249 Fifth Ave.	Downtown	PA	15222	412-762-2000	www.pnc.com	customerservice@pnc.com	James E. Rohr	james.rohr@pnc.com
PNM Resources	Alvarado Square	Albuquerque	NM	87158	505-241-2700	www.pnmresources.com	mailto:Ethics@pnmresources.com	Jeffrey E. Sterba	None
Polaris Industries	2100 Hwy. 55	Hamel	MN	55340	763-542-0500	www.polarisindustries.com	consumer.service@polarisind.com	Thomas C. Tiller	None
Polo Ralph Lauren	650 Madison Ave.	New York	NY	10022	212-318-7000	www.polo.com	customerassistance@ralphlauren.com	Ralph Lauren	None
PolyOne	33587 Walker Rd.	Avon Lake	OH	44012	440-930-1000	www.polyone.com	Rodney.Barber@PolyOne.com	Stephen D. Newlin	None
Pool	109 Northpark Blvd.	Covington	LA	70433	985-892-5521	www.poolcorp.com	None	Manuel J. Perez de la Mesa	None
Portland General Electric	121SW Salmon St.	Portland	OR	97204	503-464-8000	www.portlandgeneral.com	cs@pgn.com	Peggy Y. Fowler	None
Potlatch	601 W. First Ave.	Spokane	WA	99201	509-835-1500	www.potlatchcorp.com	None	Michael J. Covey	None
PPG Industries	1 PPG Place	Pittsburgh	PA	15272	412-434-3131	www.ppg.com	corporateinfo@ppg.com	Charles E. Bunch	None
PPL	2 N. Ninth St.	Allentown	PA	18101	610-774-5151	www.pplweb.com	customerservice@pplweb.com	James H. Miller	jhmiller@pplweb.com
Praxair	39 Old Ridgebury Rd.	Danbury	CT	06810	203-837-2000	www.praxair.com	PSTI-Info@praxair.com	Stephen F. Angel	None
Precision Castparts	4650 S.W. Macadam Ave.	Portland	OR	97239	503-417-4800	www.precast.com	info@precastcorp.com	Mark Donegan	None
Pride International	5847 San Felipe	Houston	TX	77057	713-789-1400	www.prideinternational.com	mailto:jchastain@prideinternational.com	Louis A. Raspino	None
Principal Financial	711 High St.	Des Moines	IA	50392	515-247-5111	www.principal.com	None	Larry D. Zimpleman	None
Procter & Gamble	1 Procter &amp; Gamble Plaza	Cincinnati	OH	45202	513-983-1100	www.pg.com	smiddleton@pg.com	Alan G. Lafley	None
Progress Energy	410 S. Wilmington St.	Raleigh	NC	27601	919-546-6111	www.progress-energy.com	beverly.cummings@pgnmail.com	William D. Johnson	None
Progressive	6300 Wilson Mills Rd.	Richmond Heights	OH	44143	440-461-5000	www.progressive.com	Customer_Service@pbp.com	Glenn M. Renwick	None
ProLogis	4545 Airport Way	Denver	CO	80239	303-567-5000	www.prologis.com	info@prologis.com	Jeffrey H. Schwartz	None
Protective Life	2801 Highway 280 S.	Mountain Brook	AL	35223	205-268-1000	www.protective.com	Annuity.Service@protective.com	John D. Johns	jjohns@protective.com
Prudential Financial	751 Broad St.	Newark	NJ	07102	973-802-6000	www.prudential.com	prudentialretirement@prudential.com	John R. Strangfeld Jr.	None
PSS World Medical	4345 Southpoint Blvd.	Jacksonville	FL	32216	904-332-3000	www.pssworldmedical.com	None	David A. Smith	None
Public Service Enterprise Group	80 Park Plaza	Newark	NJ	07102	973-430-7000	www.pseg.com	PSEG-CorporateSecurity@pseg.com Ralph Izzo	rizzo@pseg.com
Public Storage	701 Western Ave.	Glendale	CA	91201	818-244-8080	www.publicstorage.com	websales@PublicStorage.com	Ronald L. Havner Jr.	None
Publix Super Markets	3300 Publix Corporate Pkwy.	Southside	FL	33811	863-688-1188	www.publix.com	maria.brous@publix.com	William E. Crenshaw	william.crenshaw@publix.com
Puget Energy	10885 NE 4th St.	Beaux Arts	WA	98004	425-454-6363	www.pugetenergy.com	durga.doraisamy@pse.com	Stephen P. Reynolds	None
Pulte Homes	100 Bloomfield Hills Pkwy.	Bloomfield Towns	MI	48304	248-647-2750	www.pulte.com	info@pulte.com	Richard J. Dugas Jr.	None
Qualcomm	5775 Morehouse Dr.	San Diego	CA	92121	858-587-1121	www.qualcomm.com	qu@qualcomm.com	Paul E. Jacobs	None
Quanex	1900 W. Loop S.	Houston	TX	77027	713-961-4600	www.quanex.com	inquiry@quanex.com	Raymond A. Jean	None
Quanta Services	1360 Post Oak Blvd.	Houston	TX	77056	713-629-7600	www.quantaservices.com	headquarters@quantaservices.com	John R. Colson	None
Quest Diagnostics	3 Giralda Farms	Madison	NJ	07940	973-520-2700	www.questdiagnostics.com	customer.service@questdiagnostics.com	Surya N. Mohapatra	None
Questar	180 E. 100 South St.	Salt Lake City	UT	84145	801-324-5000	www.questar.com	conserv@questar.com	Keith O. Rattie	None
Quiksilver	15202 Graham St.	Huntington Beach	CA	92649	714-889-2200	www.quiksilverinc.com	channels@quiksilver.com	Robert B. McKnight Jr.	None
Qwest Communications	1801 California St.	Denver	CO	80202	303-992-1400	www.qwest.com	fedcsc@qwest.com	Edward A. Mueller	edward.mueller@qwest.com
R.H. Donnelley	1001 Winstead Dr.	Cary	NC	27513	919-297-1600	www.rhd.com	CustomerCareEmail@rhd.com	David C. Swanson	None
R.R. Donnelley & Sons	111 S. Wacker Dr.	Chicago	IL	60606	312-326-8000	www.rrdonnelley.com	bdssales@banta.com	Thomas J. Quinlan III	None
RadioShack	300 RadioShack Circle	Fort Worth	TX	76102	817-415-3011	www.radioshackcorporation.com	RadioShack.Customer.Care@RadioShack.com	Julian C. Day	None
Ralcorp Holdings	800 Market St.	Saint Louis	MO	63101	314-877-7000	www.ralcorp.com	ralcorpwebpage@ralcorp.com		None
Raymond James Financial	880 Carillon Pkwy.	Saint Petersburg	FL	33716	727-567-1000	www.rjf.com	None	Thomas A. James	None
Raytheon	870 Winter St.	Waltham	MA	02451	781-522-3000	www.raytheon.com	products@raytheon.com	William H. Swanson	william.swanson@raytheon.com
Realogy	1 Campus Dr.	Parsippany	NJ	07054	973-407-2000	www.realogy.com	None	Richard A. Smith	None
Regal Entertainment Group	7132 Regal Ln.	Knoxville	TN	37918	865-922-1123	www.regalentertainmentgroup.com	None	Michael L. Campbell	None
Regal-Beloit	200 State St.	Shopiere	WI	53511	608-364-8800	www.regalbeloit.com	None	Henry W. Knueppel	None
Regions Financial	1900 Fifth Ave. N.	Birmingham	AL	35203	205-944-1300	www.regions.com	service@regions.com	C. Dowd Ritter	None
Regis	7201 Metro Blvd.	Edina	MN	55439	952-947-7777	www.regiscorp.com	Advertising@regiscorp.com.	Paul D. Finkelstein	None
Reliance Steel & Aluminum	350 S. Grand Ave.	Los Angeles	CA	90071	213-687-7700	www.rsac.com	kfeazle@rsac.com	David H. Hannah	None
Reliant Energy	1000 Main St.	Houston	TX	77002	713-497-3000	www.reliant.com	service@reliant.com	Mark M. Jacobs	None
Rent A Center	5501 Headquarters Dr.	Plano	TX	75024	972-801-1100	www.rentacenter.com	customerservice@rentacenter.com	Mark E. Speese	None
Republic Services	110 SE Sixth St.	Fort Lauderdale	FL	33301	954-769-2400	www.republicservices.com	corporateoffice@repsrv.com	James E. O'Connor	None
Retail Ventures	3241 Westerville Rd.	Columbus	OH	43224	614-471-4722	www.retailventuresinc.com	None	Heywood Wilansky	None
Reynolds American	401 N. Main St.	Winston-Salem	NC	27102	336-741-2000	www.reynoldsamerican.com	swaugej@rjrt.com	Susan M. Ivey	None
Rite Aid	30 Hunter Lane	Shiremanstown	PA	17011	717-761-2633	www.riteaid.com	inquiry@riteaid.com	Mary F. Sammons	msammons@riteaid.com
Robert Half International	2884 Sand Hill Rd.	West Menlo Park	CA	94025	650-234-6000	www.rhi.com	None	Harold M. Messmer Jr.	None
Rock-Tenn	504 Thrasher St.	Norcross	GA	30071	770-448-2193	www.rocktenn.com	ldeleva@rocktenn.com	James A. Rubright	None
Rockwell Automation	1201S. Second St.	Milwaukee	WI	53204	414-382-2000	www.rockwellautomation.com	Email: anorad@anorad.com	Keith D. Nosbusch	None
Rockwell Collins	400 Collins Rd. N.E.	Cedar Rapids	IA	52498	319-295-1000	www.rockwellcollins.com	learnmore@rockwellcollins.com	Clayton M. Jones	cmjones@rockwellcollins.com
Rockwood Holdings	100 Overlook Center	Princeton	NJ	08540	609-514-0300	www.rocksp.com	gbishop@advantistech.com	Seifi Ghasemi	None
Rohm & Haas	100 Independence Mall W.	Philadelphia	PA	19106	215-592-3000	www.rohmhaas.com	info@rohmhaas.com	Rajiv L. Gupta	None
Roper Industries	6901 ProfessionalPkwy. E.	Sarasota	FL	34240	941-556-2601	www.roperind.com	None	Brian D. Jellison	None
Ross Stores	4440 Rosewood Dr.	Pleasanton	CA	94588	925-965-4400	www.rossstores.com	customer.service@ros.com	Michael A. Balmuth	None
Rowan	2800 Post Oak Blvd.	Houston	TX	77056	713-621-7800	www.rowancompanies.com	marketing@rowancompanies.com	Daniel F. McNease	None
RPM International	2628 Pearl Rd.	Medina	OH	44256	330-273-5090	www.rpminc.com	info@rpminc.com	Frank C. Sullivan	None
RSC Holdings	6929 E. Greenway Pkwy.	Scottsdale	AZ	85254	480-905-3300	www.rscrental.com	None	Eric Olsson	None
Ruddick	301 S. Tryon St.	Charlotte	NC	28202	704-372-5404	www.ruddickcorp.com	None	Thomas W. Dickson	None
Rush Enterprises	555 IH-35 S.	Canyon Lake	TX	78130	830-626-5200	www.rushenterprises.com	info@rushenterprises.com	W. M. Rush	None
Ryder System	11690 N.W. 105th St.	Miami	FL	33178	305-500-3726	www.ryder.com	rydercustomerservice@ryder.com	Gregory T. Swienton	None
Ryland Group	24025 Park Sorrento	Calabasas	CA	91302	818-223-7500	www.ryland.com	jgrovert@ryland.com	R. Chad Dreier	None
Safeco	1001 Fourth Ave.	Seattle	WA	98154	206-545-5000	www.safeco.com	asknpf@safeco.com	Paula Rosput Reynolds	None
Safeway	5918 Stoneridge Mall Rd.	Pleasanton	CA	94588	925-467-3000	www.safeway.com	info@safeway.com	Steven A. Burd	None
SAIC	10260 Campus Point Dr.	San Diego	CA	92121	858-826-6000	www.saic.com	laura.luke@saic.com	Kenneth C. Dahlberg	None
Saks	12 E. 49 St.	New York	NY	10017	212-940-5305	www.saksincorporated.com	websitefeedback@saksinc.com	Stephen I. Sadove	None
Sally Beauty Holdings	3001 Colorado Blvd.	Denton	TX	76210	940-898-7500	www.sallybeautyholdings.com	sjmartin@sallybeauty.com	Gary G. Winterhalter	None
SanDisk	601 McCarthy Blvd.	Milpitas	CA	95035	408-801-1000	www.sandisk.com	support@sandisk.com	Eli Harari	eharari@sandisk.com
Sanmina-SCI	2700 N. First St.	San Jose	CA	95134	408-964-3500	www.sanmina-sci.com	info@sanmina-sci.com	Jure Sola	None
Sara Lee	3500 Lacey Rd.	Downers Grove	IL	60515	312-726-2600	www.saralee.com	info@saralee.com	Brenda C. Barnes	None
Sauer-Danfoss	250 Parkway Dr.	Prairie View	IL	60069	515-239-6000	www.sauer-danfoss.com	corpbrochure@sauer-danfoss.com	David J. Anderson	david.a@sauer-danfoss.com
Scana	1426 Main St.	Columbia	SC	29201	803-217-9000	www.scana.com	thewitt@scana.com	William B. Timmerman	None
ScanSource	6 Logue Court	Greenville	SC	29615	864-288-2432	www.scansource.com	ssc-sales@scansourcecommunications.com	Michael L. Baur	None
Schering-Plough	2000 Galloping Hill Rd.	Kenilworth	NJ	07033	908-298-4000	www.schering-plough.com	Global Privacy Office by email at privacyoffice@spcorp.com	Fred Hassan	None
Schnitzer Steel Industries	3200 N.W. Yeon Ave.	Portland	OR	97210	503-224-9900	www.schnitzersteel.com	tzelenka@schn.com	John D. Carter	None
Scholastic	557 Broadway	New York	NY	10012	212-343-6100	www.scholastic.com	scholastic@mailnj.custhelp.com	Richard Robinson	None
Scotts Miracle-Gro	14111 Scottslawn Road	Marysville	OH	43041	937-644-0011	www.scotts.com	None	James Hagedorn	None
Seaboard	9000 W. 67th St.	Countryside	KS	66202	913-676-8800	www.seaboardcorp.com	seaboard@seaboardcorp.com	Steven J. Bresky	None
Sealed Air	200 Riverfront Blvd.	Elmwood Park	NJ	07407	201-791-7600	www.sealedair.com	bill.hickey@sealedair.com	William V. Hickey	None
Sealy	1 Office Pkwy.	Trinity	NC	27370	336-861-3500	www.sealy.com	None	Lawrence J. Rogers	None
Sears Holdings	3333 Beverly Rd.	Hoffman Estates	IL	60179	847-286-2500	www.searsholdings.com	laborc@searshc.com	W. Bruce Johnson	None
Securian Financial Group	400 Robert St. N.	Saint Paul	MN	55101	651-665-3500	www.securian.com	customers@securian.com	Robert L. Senkler	None
Selective Insurance Group	40 Wantage Ave.	Branchville	NJ	07890	973-948-3000	www.selective.com	mailings@intelesis.com	Gregory E. Murphy	None
Sempra Energy	101 Ash St.	San Diego	CA	92101	619-696-2034	www.sempra.com	gifts@sempra.com	Donald E. Felsinger	None
Sentry Insurance Group	1800 N. Point Dr.	Stevens Point	WI	54481	715-346-6000	www.sentry.com	supportcenter@sentry.com	Dale R. Schuh	None
Service Corp. International	1929 Allen Pkwy.	Houston	TX	77019	713-522-5141	www.sci-corp.com	GeneralInquiries@sci-us.com	Thomas L. Ryan	None
ServiceMaster	860 Ridge Lake Blvd.	Memphis	TN	38120	901-597-1400	www.svm.com	info@svm.com	J. PatrickSpainhour	None
Shaw Group	4171 Essen Lane	Baton Rouge	LA	70809	225-932-2500	www.shawgrp.com	Energy@shawgrp.com	James M. Bernhard Jr.	None
Sherwin-Williams	101 Prospect Ave. N.W.	Cleveland	OH	44115	216-566-2000	www.sherwin.com	None	Christopher M. Connor	None
Sierra Health Services	2724 N. Tenaya Way	Las Vegas	NV	89128	702-242-7000	www.sierrahealth.com	w3_hpnsd_shl@sierrahealth.com	Stephen J. Hemsley	None
Sierra Pacific Resources	6100 Neil Rd.	Reno	NV	89511	775-834-4011	www.sierrapacificresources.com	nevadateam@sierrapacific.com	Michael W. Yackira	None
Sigma-Aldrich	3050 Spruce St.	Saint Louis	MO	63103	314-771-5765	www.sigmaaldrich.com	isrcustserv@sial.com	Jai P. Nagarkatti	None
Silgan Holdings	4 Landmark Sq.	Stamford	CT	06901	203-975-7110	www.silganholdings.com	silganir@silgan.com	Anthony J. Allott	None
Simon Property Group	225 W. Washington St.	Indianapolis	IN	46204	317-636-1600	www.simon.com	contact@simon.com	David Simon	None
Sirva	700 Oakmont Lane	Westmont	IL	60559	630-570-3000	www.sirva.com	dee.smith@sirva.com	Robert W. Tieken	None
SkyWest	444 S. River Rd.	St. George	UT	84790	435-634-3000	www.skywest.com	info@skywest.com	Jerry C. Atkin	None
SLM	12061 Bluemont Way	Reston	VA	20190	703-810-3000	www.salliemae.com	requesthelp@salliemae.com	Albert L. Lord	None
Smith International	16740 E. Hardy Rd.	Houston	TX	77032	281-443-3370	www.smith.com	info@smith.com	Douglas L. Rock	None
Smithfield Foods	200 Commerce St.	Smithfield	VA	23430	757-365-3000	www.smithfieldfoods.com	support@smithfieldfoods.com	C. Larry Pope	None
Smurfit-Stone Container	150 N. Michigan Ave.	Chicago	IL	60601	312-346-6600	www.smurfit-stone.com	supplierzone@smurfit.com	Patrick J. Moore	None
Snap-On	2801 80th St.	Kenosha	WI	53143	262-656-5200	www.snapon.com	contract.sales@snapon.com	Nicholas T. Pinchuk	None
Solo Cup	1700 Old Deerfield Rd.	Highland Park	IL	60035	847-831-4800	www.solocup.com	info@solocup.com	Robert M. Korzenski	None
Solutia	575 Maryville Centre Dr.	Creve Coeur	MO	63141	314-674-1000	www.solutia.com	info@solutia.com	Jeffry N. Quinn	None
Sonic Automotive	6415 Idlewild Rd.	Charlotte	NC	28212	704-566-2400	www.sonicautomotive.com	purchasing@sonicautomotive.com	O. Bruton Smith	None
Sonoco Products	1 N. Second St.	Hartsville	SC	29550	843-383-7000	www.sonoco.com	None	Harris E. DeLoach Jr.	None
Source Interlink	27500 Riverview Center Blvd.	Bonita Springs	FL	34134	239-949-4450	www.sourceinterlink.com	webmastersource@sourceinterlink.com		None
Southern	30 Ivan Allen Jr. Blvd. N.W.	Atlanta	GA	30308	404-506-5000	www.southerncompany.com	ebill-support@southernco.com	David M. Ratcliffe	None
Southern Union	5444 Westheimer Rd.	Houston	TX	77056	713-989-2000	www.sug.com	mail@southernunionco.com	George L. Lindemann	None
Southwest Airlines	2702 Love Field Dr.	Dallas	TX	75235	214-792-4000	www.southwest.com	None	Gary C. Kelly	None
Southwest Gas	5241 Spring Mtn. Rd.	Las Vegas	NV	89193	702-876-7237	www.swgas.com	webmaster@swgas.com	Jeffrey W. Shaw	jeff.shaw@swgas.com
Sovereign Bancorp	1500 Market St.	Philadelphia	PA	19102	215-256-8601	www.sovereignbank.com	Customer Service Email: mortserv@sovereignbank.com	Joseph P. Campanelli	None
Spansion	915 DeGuigne Dr.	Sunnyvale	CA	94088	408-962-2500	www.spansion.com	courtney.brigham@spansion.com	Bertrand F. Cambou	None
Spartan Stores	850 76th St. S.W.	Grand Rapids	MI	49518	616-878-2000	www.spartanstores.com	communications@spartanstores.com	Craig C. Sturken	None
Spectra Energy	5400 Westheimer Court	Houston	TX	77056	713-627-5400	www.spectraenergy.com	IR-SEP@spectraenergy.com	Fred J. Fowler	None
Spectrum Brands	6 Concourse Pkwy.	Sandy Springs	GA	30328	770-829-6200	www.spectrumbrands.com	info@eightinonepet.com	Kent Hussey	None
Spherion	2050 Spectrum Blvd.	Fort Lauderdale	FL	33309	954-308-7600	www.spherion.com	help@spherion.com	Roy G. Krause	None
Sprint Nextel	6200 Sprint Pkwy.	Overland Park	KS	66251	800-829-0965	www.sprint.com	ecare@cc.sprintpcs.com	Daniel R. Hesse	None
SPX	13515 Ballantyne Corporate Place	Charlotte	NC	28277	704-752-4400	www.spx.com	spxfc@spx.com	Christopher J. Kearney	None
St. Jude Medical	1 Lillehei Plaza	Little Canada	MN	55117	651-483-2000	www.sjm.com	minnetonkacustomerservice@sjm.com	Daniel J. Starks	None
StanCorp Financial	1100 SW Sixth Ave.	Portland	OR	97204	971-321-7000	www.stancorpfinancial.com	jdelaney@standard.com	Eric E. Parsons	None
Standard Pacific	15326 Alton Pkwy.	Irvine	CA	92618	949-789-1600	www.standardpacifichomes.com	None	Jeffrey V. Peterson	None
Stanley Works	1000 Stanley Dr.	New Britain	CT	06053	860-225-5111	www.stanleyworks.com	gwaybright@stanleyworks.com	John F. Lundgren	
Staples	500 Staples Dr.	Framingham	MA	01702	508-253-5000	www.staples.com	info@staples.com	Ronald L. Sargent	ron.sargent@staples.com
Starbucks	2401 Utah Ave. S.	Seattle	WA	98134	206-447-1575	www.starbucks.com	fservice@starbucks.com	Howard Schultz	None
Starwood Hotels & Resorts	1111 Westchester Ave.	East White Plain	NY	10604	914-640-8100	www.starwoodhotels.com	None	Frits van Paasschen	None
State Farm Insurance Cos.	1 State Farm Plaza	Bloomington	IL	61710	309-766-2311	www.statefarm.com	info@statefarm.com	Edward B. Rust Jr.	None
State Street Corp.	1 Lincoln St.	Boston	MA	02111	617-786-3000	www.statestreet.com	information@statestreet.com	Ronald E. Logue	None
Stater Bros. Holdings	301 S. Tippecanoe Ave.	San Bernardino	CA	92408	909-733-5000	www.staterbros.com	None	Jack H. Brown	None
Steel Dynamics	6714 Pointe Inverness Way	Fort Wayne	IN	46804	260-969-3500	www.steeldynamics.com	k.busse@steeldynamics.com	Keith E. Busse	None
Steelcase	901 44th St. S.E.	Kentwood	MI	49508	616-247-2710	www.steelcase.com	store@steelcase.com	James P. Hackett	None
Stewart Information Services	1980 Post Oak Blvd.	Houston	TX	77056	713-625-8100	www.stewart.com	customerservice@stewart.com		None
Stryker	2825 Airview Blvd.	Kalamazoo	MI	49002	269-385-2600	www.stryker.com	Imaging-Support@stryker.com	Stephen P. MacMillan	None
Sun Healthcare Group	18831 Von Karman	Irvine	CA	92612	949-255-7100	www.sunh.com	None	Richard K. Matros	None
Sun Microsystems	4150 Network Circle	Santa Clara	CA	95054	650-960-1300	www.sun.com	None	Jonathan I. Schwartz	None
SunGard Data Systems	680 E. Swedesford Rd.	Radnor	PA	19087	484-582-2000	www.sungard.com	GetInfo@SunGard.com	Crist&oacute;bal I. Conde	None
Sunoco	1735 Market St.	Philadelphia	PA	19103	215-977-3000	www.SunocoInc.com	CUSTOMERFIRST@sunocoinc.com	John G. Drosdick	None
SunTrust Banks	303 Peachtree St. N.E.	Atlanta	GA	30308	404-588-7711	www.suntrust.com	info@suntrust.com	James M. Wells III	None
Superior Essex	150 Interstate N. Pkwy.	Atlanta	GA	30339	770-657-6000	www.superioressex.com	comm.us@spsx.com	Stephen M. Carter	None
Supervalu	11840 Valley View Rd.	Eden Prairie	MN	55344	952-828-4000	www.supervalu.com	None	Jeffrey Noddle	None
Susser Holdings	4433 Baldwin Blvd.	Corpus Christi	TX	78408	361-884-2463	www.susser.com	contactus@susser.com	Sam L. Susser	None
Symantec	20330 Stevens Creek Blvd.	Monte Vista	CA	95014	408-517-8000	www.symantec.com	customersupport@symantec.iseva.net	John W. Thompson	None
Synnex	44201 Nobel Dr.	Fremont	CA	94538	510-656-3333	www.synnex.com	cshelp@synnex.com		None
Synovus Financial Corp.	1111 Bay Ave.	Columbus	GA	31901	706-649-5220	www.synovus.com	patdixon@synovus.com	Richard E. Anthony	None
Sysco	1390 Enclave Pkwy.	Houston	TX	77077	281-584-1390	www.sysco.com	white.marsha@atl.sysco.com	Richard J. Schnieders	None
Systemax	11 Harbor Park Dr.	Port Washington	NY	11050	516-608-7000	www.systemax.com	info@amstock.com	Richard Leeds	None
T. Rowe Price	100 E. Pratt St.	Baltimore	MD	21202	410-345-2000	www.troweprice.com	information@trowepriceglobal.com	James A.C. Kennedy	None
Targa Resources	1000 Louisiana St.	Houston	TX	77002	713-584-1000	www.targaresources.com	PMcConnell@targaresources.com	Rene R. Joyce	None
Target	1000 Nicollet Mall	Minneapolis	MN	55403	612-304-6073	www.target.com		Gregg Steinhafel	Gregg.Steinhafel@target.com
TD Ameritrade	4211 S. 102nd St.	Ralston	NE	68127	402-331-7856	www.amtd.com	Jmoglia@amtd.com	Joseph H. Moglia	None
Tech Data	5350 Tech Data Dr.	Clearwater	FL	33760	727-539-7429	www.techdata.com	ecsupport@techdata.com	Robert M. Dutkowsky	None
TECO Energy	702 N. Franklin St.	Tampa	FL	33602	813-228-1111	www.tecoenergy.com	lpduda@tecoenergy.com	Sherrill W. Hudson	None
Teleflex	155 S. Limerick Rd.	Limerick	PA	19468	610-948-5100	www.teleflex.com	info@ruesch-schweiz.ch	Jeffrey P. Black	None
Telephone & Data Systems	30 N. LaSalle St.	Chicago	IL	60602	312-630-1900	www.teldta.com	TDSinfo@teldta.com	LeRoy T. Carlson Jr.	None
Tellabs	1415 W. Diehl Rd.	Naperville	IL	60563	630-798-8800	www.tellabs.com	tom.scottino@tellabs.com	Robert W. Pullen	None
Temple-Inland	1300 MoPac Expressway S.	West Lake Hills	TX	78746	512-434-5800	www.templeinland.com	information@templeinland.com	Doyle R. Simons	None
Tenet Healthcare	13737 Noel Rd.	Dallas	TX	75240	469-893-2200	www.tenethealth.com	Daniel.Waldmann@tenethealth.com	Trevor Fetter	None
Tenneco	500 N. Field Dr.	Lake Forest	IL	60045	847-482-5000	www.tenneco.com	jostrander@tenneco.com	Gregg M. Sherrill	None
Terex	200 Nyala Farm Rd.	Westport	CT	06880	203-222-7170	www.terex.com	info@terex.com	Ronald M. DeFeo	None
Terra Industries	600 Fourth St.	Sioux City	IA	51101	712-277-1340	www.terraindustries.com	webmanager@terraindustries.com	Michael L. Bennett	None
Tesoro	300 Concord Plaza Dr.	San Antonio	TX	78216	210-828-8484	www.tsocorp.com	info@tsocorp.com	Bruce A. Smith	None
Texas Instruments	12500 TI Blvd.	Dallas	TX	75243	972-995-3773	www.ti.com	tiprime@dlep14.itg.ti.com	Richard K. Templeton	None
Textron	40 Westminster St.	Providence	RI	02903	401-421-2800	www.textron.com	supplybase@textron.com	Lewis B. Campbell	None
Thermo Fisher Scientific	81 Wyman St.	Waltham	MA	02454	781-622-1000	www.thermofisher.com	cs.webemail@thermofisher.com	Marijn E. Dekkers	None
Thomas & Betts	8155 T&amp;B Blvd.	Memphis	TN	38125	901-252-8000	www.tnb.com	elec_custserv@tnb.com	Dominic J. Pileggi	None
Thor Industries	419 W. Pike St.	Jackson Center	OH	45334	937-596-6849	www.thorindustries.com	thorsales@thorca.com	Wade F.B. Thompson	None
Thrivent Financial for Lutherans	625 Fourth Ave. S.	Minneapolis	MN	55415	612-340-7000	www.thrivent.com	service@clubcolors.com	Bruce J. Nicholson	None
TIAA-CREF	730 Third Ave.	New York	NY	10017	212-490-9000	www.tiaa-cref.org	AdvisorAccess@tiaa-cref.org	Roger W. Ferguson Jr.	None
Tiffany	727 Fifth Ave.	New York	NY	10022	212-755-8000	www.tiffany.com	personalshopping@tiffany.com	Michael J. Kowalski	None
Time Warner	1 Time Warner Center	New York	NY	10019	212-484-8000	www.timewarner.com	help@columbus.rr.com	Jeffrey L. Bewkes	None
Timken	1835 Dueber Ave. S.W.	Canton	OH	44706	330-438-3000	www.timken.com	info@timken.com	James W. Griffith	None
TJX	770 Cochituate Rd.	Framingham	MA	01701	508-390-1000	www.tjx.com	webmaster@voltdirectory.com	Carol M. Meyrowitz	None
Toll Brothers	250 Gibraltar Rd.	Horsham	PA	19044	215-938-8000	www.tollbrothers.com	support@toolbrothers.com	Robert I. Toll	None
Torchmark	3700 S. Stonebridge Dr.	Mc Kinney	TX	75070	972-569-4000	www.torchmarkcorp.com	tmkir@torchmarkcorp.com	Mark S. McAndrew	None
Toro	8111 Lyndale Ave. S.	Bloomington	MN	55420	952-888-8801	www.thetorocompany.com	companyinfo@thetorocompany.com	Michael J. Hoffman	None
Toys 'R' Us	1 Geoffrey Way	Wayne	NJ	07470	973-617-3500	www.toysrusinc.com	customer_service@webmail.toysrus.com	Gerald L. Storch	None
Tractor Supply	200 Powell Place	Brentwood	TN	37027	615-440-4000	www.tractorsupply.com	None	James F. Wright	None
Trane	1 Centennial Ave.	Piscataway	NJ	08855	732-980-6000	www.trane.com	None	Frederic M. Poses	None
TravelCenters of America	24601 Center Ridge Rd.	Westlake	OH	44145	440-808-9100	www.tatravelcenters.com	info@tatravelcenters.com	Thomas M. O'Brien	None
Travelers Cos.	385 Washington St.	Saint Paul	MN	55102	651-310-7911	www.travelers.com	None	Jay S. Fishman	None
Tribune	435 N. Michigan Ave.	Chicago	IL	60611	312-222-9100	www.tribune.com	corp.info@tribune.com	Samuel Zell	None
Trinity Industries	2525 Stemmons Fwy.	Dallas	TX	75207	214-631-4420	www.trin.net	Trinity.Rail@trin.net Timothy R. Wallace	None
TRW Automotive Holdings	12001 Tech Center Dr.	Livonia	MI	48150	734-855-2600	www.trw.com	Louise.colledge@trw.com	John C. Plant	None
Tupperware Brands	14901 S. Orange Blossom Trail	Orlando	FL	32837	407-826-5050	www.tupperwarebrands.com	comments@tupperware.com	E.V.Goings	None
Tyson Foods	2210 W. Oaklawn Dr.	Springdale	AR	72762	479-290-4000	www.tysonfoodsinc.com	gary.mickelson@tyson.com	Richard L. Bond	None
U.S. Bancorp	800 Nicollet Mall	Minneapolis	MN	55402	651-466-3000	www.usbank.com	1800usbanks@usbank.com	Richard K. Davis	None
UAL	77 W. Wacker Dr.	Chicago	IL	60601	312-997-8000	www.united.com	None	Glenn F. Tilton	glenn.tilton@united.com
UAP Holding	7251 W. 4th St.	Greeley	CO	80634	970-356-4400	www.uap.com	david.wheat@uap.com	L. Kenneth Cordell	None
UGI	460 N. Gulph Rd.	King Of Prussia	PA	19406	610-337-1000	www.ugicorp.com	blakeb@ugicorp.com	Lon R. Greenberg	None
Unified Western Grocers	5200 Sheila St.	City Of Commerce	CA	90040	323-264-5200	www.uwgrocers.com	spoc2@uwgrocers.com	Alfred A. Plamann	None
Union Pacific	1400 Douglas St.	Omaha	NE	68179	402-544-5000	www.up.com	ocpatronclaim@up.com	James R. Young	None
Unisys	Unisys Way	Blue Bell	PA	19424	215-986-4011	www.unisys.com	info@unisys.com	Joseph W. McGrath	None
United Natural Foods	260 Lake Rd.	Dayville	CT	06241	860-779-2800	www.unfi.com	info@unfi.com	Michael S. Funk	None
United Parcel Service	55 Glenlake Pkwy. N.E.	Sandy Springs	GA	30328	404-828-6000	www.ups.com	info@unitedparcledistribution.com	D. Scott Davis	None
United Rentals	5 Greenwich Office Park	Greenwich	CT	06831	203-622-3131	www.unitedrentals.com	dstewart@ur.com	Michael J. Kneeland	None
United Services Automobile Assn.	9800 Fredericksburg Rd	San Antonio	TX	78288	210-498-2211	www.usaa.com	militaryrecruiting@usaa.com	Josue Robles Jr.	None
United States Steel	600 Grant St.	Uptown	PA	15219	412-433-1121	www.ussteel.com	steeltrack@uss.com	John P. Surma Jr.	None
United Stationers	1 Parkway N. Blvd.	Deerfield	IL	60015	847-627-7000	www.unitedstationers.com	comments@ussco.com	Richard W. Gochnauer	None
United Technologies	1 Financial Plaza	Hartford	CT	06103	860-728-7000	www.utc.com	stockoptionplans@utc.com	Louis Ch&ecirc;nevert	None
UnitedHealth Group	9900 Bren Rd. E.	Eden Prairie	MN	55343	952-936-1300	www.unitedhealthgroup.com	None	Stephen J. Hemsley	None
Unitrin	1 E. Wacker Dr.	Chicago	IL	60601	312-661-4600	www.unitrin.com	None	Donald G. Southwell	None
Universal	1501 N. Hamilton St.	West End	VA	23230	804-359-9311	www.universalcorp.com	None	George C. Freeman III	None
Universal American	6 International Dr.	Rye Brook	NY	10573	914-934-5200	www.uafc.com	information@hhsi.com	Richard A. Barasch	None
Universal Forest Products	2801 E. Beltline N.E.	Grand Rapids	MI	49525	616-364-6161	www.ufpi.com	customerservice@ufpi.com	Michael B. Glenn	None
Universal Health Services	367 S. Gulph Rd.	King Of Prussia	PA	19406	610-768-3300	www.uhsinc.com	info@uhsinc.com	Alan B. Miller	None
Univision Communications	605 Third Ave.	New York	NY	10158	212-455-5200	www.univision.net	uvn@openboard.info	Joseph Uva	None
Unum Group	1 Fountain Square	Chattanooga	TN	37402	423-294-1011	www.unum.com	trwatjen@Unum.com	Thomas R. Watjen	None
URS	600 Montgomery St.	San Francisco	CA	94111	415-774-2700	www.urscorp.com	info@urscorp.com	Martin M. Koffel	None
US Airways Group	111 W. Rio Salado Pkwy.	Tempe	AZ	85281	480-693-0800	www.usairways.com	sales@usairways.com	W. Douglas Parker	None
US Oncology Holdings	16825 Northchase Dr.	Houston	TX	77060	832-601-8766	www.usoncology.com	oncology.info@usoncology.com	Bruce D. Broussard	None
USEC	6903 Rockledge Dr.	West Bethesda	MD	20817	301-564-3200	www.usec.com	corpcomm@usec.com	John K. Welch	None
USG	550 W. Adams St.	Chicago	IL	60661	312-436-4000	www.usg.com	usg4you@usg.com	William C. Foote	None
UST	6 High Ridge Park	Ridgeway	CT	06905	203-817-3000	www.ustinc.com	None	Murray S. Kessler	None
UTStarcom	1275 Harbor Bay Pkwy.	Alameda	CA	94502	510-864-8800	www.utstar.com	services@utstar.com	Hong Liang Lu	None
Valassis Communications	19975Victor Pkwy.	Livonia	MI	48152	734-591-3000	www.valassis.com	info@valassis.ca	Alan F. Schultz	None
Valero Energy	1 Valero Way	San Antonio	TX	78249	210-345-2000	www.valero.com	customer.relations@valero.com	William R. Klesse	None
Valspar	1101 Third St. S.	Minneapolis	MN	55415	612-332-7371	www.valspar.com	techservices@valspar.com	William L. Mansfield	None
Vanguard Health Systems	20 Burton Hills Blvd.	Nashville	TN	37215	615-665-6000	www.vanguardhealth.com	abroad@vanguardhealth.com	Charles N. Martin Jr.	None
Varian Medical Systems	3100 Hansen Way	Palo Alto	CA	94304	650-493-4000	www.varian.com	mario.cavallari@varian.com	Timothy E. Guertin	None
Vectren	1 Vectren Sq.	Evansville	IN	47708	812-491-4000	www.vectren.com	None	Niel C. Ellerbrook	None
Verizon Communications	140 West St.	New York	NY	10007	212-395-1000	www.verizon.com		Ivan G. Seidenberg	ivan.g.seidenberg@verizon.com
VF	105 Corporate Center Blvd.	Greensboro	NC	27408	336-424-6000	www.vfc.com	corporate_communications@vfc.com	Eric C. Wiseman	None
Viacom	1515 Broadway	New York	NY	10036	212-258-6000	www.viacom.com	None	Philippe P. Dauman	None
Virgin Media	909 Third Ave.	New York	NY	10022	212-906-8440	www.virginmedia.com	None	Neil Berkett	None
Vishay Intertechnology	63 Lancaster Ave.	Frazer	PA	19355	610-644-1300	www.vishay.com	business-americas@vishay.com	Gerald Paul	None
Visteon	1 Village Center Dr.	Belleville	MI	48111	800-847-8366	www.visteon.com	info@visteon.com	Michael F. Johnston	None
Volt Information Sciences	560 Lexington Ave.	New York	NY	10022	212-704-2400	www.volt.com	info@volt.com	Steven A. Shaw	None
Vornado Realty Trust	888 Seventh Ave.	New York	NY	10019	212-894-7000	www.vno.com	jlutzius@GreenStreetAdvisors.com	Steven Roth	None
Vulcan Materials	1200 Urban Center Dr.	Shoal Creek	AL	35242	205-298-3000	www.vulcanmaterials.com	community@vmcmail.com	Donald M. James	None
VWR Funding	1310 Goshen Parkway	West Chester	PA	19380	610-431-1700	www.vwr.com	customerservice@vwr.com	John M. Ballbach	None
W.R. Berkley	475 Steamboat Rd.	Byram	CT	06830	203-629-3000	www.wrberkley.com	jpennachio@wrberkley.com	William R. Berkley	None
W.R. Grace	7500 Grace Dr.	Columbia	MD	21044	410-531-4000	www.grace.com	info@grace.com	Alfred E. Festa	None
W.W. Grainger	100 Grainger Pkwy.	Lake Forest	IL	60045	847-535-1000	www.grainger.com	eprocustomercare@notes.grainger.com.	Richard L. Keyser	None
Wachovia Corp.	1 Wachovia Center	Charlotte	NC	28288	704-374-6565	www.wachovia.com	communityaffairs@wachovia.com	G. Kennedy Thompson	None
Wal-Mart Stores	702 S.W. Eighth St.	Wal-mart Inc	AR	72716	479-273-4000	www.walmartstores.com	help@walmart.com	H. Lee Scott Jr.	Lee.Scott@wal-mart.com
Walgreen	200 Wilmot Rd.	Deerfield	IL	60015	847-914-2500	www.walgreens.com	Customerservice@mail2.walgreens.com	Jeffrey A. Rein	None
Walt Disney	500 S. Buena Vista St.	Burbank	CA	91521	818-560-1000	www.disney.com	kathy.nolda@dig.com	Robert A. Iger	None
Warnaco Group	501 Seventh Ave.	New York	NY	10018	212-287-8000	www.warnaco.com	contactus@warnaco.com	Joseph R. Gromek	None
Warner Music Group	75 Rockefeller Plaza	New York	NY	10019	212-275-2000	www.wmg.com	mediainquiries@wmg.com	Edgar Bronfman Jr.	None
Washington Mutual	1301 Second Ave.	Seattle	WA	98101	206-461-2000	www.wamu.com	customerservice@wamu.com	Kerry K. Killinger	None
Washington Post	1150 15th St. N.W.	Washington	DC	20071	202-334-6000	www.washpostco.com	TWPCoReply@washpost.com	Donald E. Graham	None
Waste Management	1001 Fannin St.	Houston	TX	77002	713-512-6200	www.wm.com	wmcares@wm.com	David P. Steiner	None
Watsco	2665 S. Bayshore Dr.	Coral Gables	FL	33133	305-714-4100	www.watsco.com	mailto:info@watsco.com	Albert H. Nahmad	None
Watson Pharmaceuticals	311 Bonnie Circle	Corona	CA	92880	951-493-5300	www.watson.com	None	Paul M. Bisaro	None
Weis Markets	1000 S. Second St.	Sunbury	PA	17801	570-286-4571	www.weismarkets.com	feedback@weismarkets.com	Norman S. Rich	None
WellPoint	120 Monument Circle	Indianapolis	IN	46204	317-532-6000	www.wellpoint.com	info@wellpoint.com	Angela F. Braly	None
Wells Fargo	420 Montgomery St.	San Francisco	CA	94163	866-878-5865	www.wellsfargo.com	corpcsf@wellsfargo.com	John G. Stumpf	None
Wendy's International	4288 W. Dublin-Granville Rd.	Dublin	OH	43017	614-764-3100	www.wendys-invest.com	international_opportunities@wendys.com	Kerrii B. Anderson	None
Werner Enterprises	14507 Frontier Rd.	Papillion	NE	68138	402-895-6640	www.werner.com	None	Gregory L. Werner	None
Wesco International	225 West Station Square Dr.	Uptown	PA	15219	412-454-2200	www.wesco.com	ewells@wesco.com	Roy W. Haley	None
West	11808 Miracle Hills Dr.	Omaha	NE	68154	402-963-1200	www.west.com	employment@west.com	Thomas B. Barker	None
Westar Energy	818 S. Kansas Ave.	Topeka	KS	66612	785-575-6300	www.westarenergy.com	None	William B. Moore	None
Western & Southern Financial Group	400 Broadway	Cincinnati	OH	45202	513-629-1800	www.westernsouthern.com	sales@westernsouthern.com	John F. Barrett	None
Western Digital	20511 Lake Forest Dr.	Lake Forest	CA	92630	949-672-7000	www.westerndigital.com	westerndigital@custhelp.com	John F. Coyne	None
Western Refining	123 W. Mills Ave.	El Paso	TX	79901	915-534-1400	www.wnr.com	sales@wnr.com	Paul L. Foster	None
Western Union	12500 E. Belford Ave.	Englewood	CO	80112	866-405-5012	www.westernunion.com	luella.dangelo@westernunion.com	Christina A. Gold	None
Westlake Chemical	2801 Post Oak Blvd.	Houston	TX	77056	713-960-9111	www.westlake.com	mediarelations@westlake.com	Albert Chao	None
Weyerhaeuser	33663 Weyerhaeuser Way S.	Federal Way	WA	98063	253-924-2345	www.weyerhaeuser.com	info@weyerhaeuser.com	Daniel S. Fulton	None
WGL Holdings	101 Constitution Ave. N.W.	Washington	DC	20080	703-750-2000	www.wglholdings.com	madams@washgas.com	James H. DeGraffenreidt Jr.	None
Whirlpool	2000 North M-63	Benton Harbor	MI	49022	269-923-5000	www.whirlpoolcorp.com	whirlpool_customerexperience@whirlpool.com.	Jeff M. Fettig	None
Whole Foods Market	550 Bowie St.	Austin	TX	78703	512-477-4455	www.wholefoodsmarket.com	Kate.Lowery@wholefoods.com	John P. Mackey	None
Williams	1 Williams Center	Tulsa	OK	74172	918-573-2000	www.williams.com	info@williams.com	Steven J. Malcolm	None
Williams-Sonoma	3250 Van Ness Ave.	San Francisco	CA	94109	415-421-7900	www.williams-sonomainc.com	None	W. HowardLester	None
Windstream	4001 Rodney Parham Rd.	Little Rock	AR	72212	501-748-7000	www.windstream.com	support@windstream.net	Jeffrey R. Gardner	None
Winn-Dixie Stores	5050 Edgewood Court	Jacksonville	FL	32254	904-783-5000	www.winn-dixie.com	MichaelIstre@winn-dixie.com	Peter L. Lynch	None
Wisconsin Energy	231 W. Michigan St.	Milwaukee	WI	53203	414-221-2345	www.wisconsinenergy.com	customerserv@edisonsault.com	Gale E. Klappa	None
Wm. Wrigley Jr.	410 N. Michigan Ave.	Chicago	IL	60611	312-644-2121	www.wrigley.com	drp@wrigley.com	William D. Perez	None
World Fuel Services	9800 N.W. 41st St.	Miami	FL	33178	305-428-8000	www.wfscorp.com	information@wfscorp.com	Paul H. Stebbins	None
Worthington Industries	200 Old Wilson Bridge Road	Worthington	OH	43085	614-438-3210	www.worthingtonindustries.com	jmcconnell@worthingtonindustries.com	John P. McConnell	None
Wyeth	5 Giralda Farms	Madison	NJ	07940	973-660-5000	www.wyeth.com	pr@wyeth.com	Bernard Poussot	None
Wyndham Worldwide	7 Sylvan Way	Parsippany	NJ	07054	973-753-6000	www.wyndhamworldwide.com	None	Stephen P. Holmes	None
Wynn Resorts	3131 Las Vegas Blvd. S.	Las Vegas	NV	89109	702-770-7555	www.wynnresorts.com	guestcomments@wynnlasvegas.com Stephen A. Wynn	None
Xcel Energy	414 Nicollet Mall	Minneapolis	MN	55401	612-330-5500	www.xcelenergy.com	boardofdirectors@xcelenergy.com	Richard C. Kelly	
Xerox	45 Glover Ave.	Norwalk	CT	06850	203-968-3000	www.xerox.com	support@xeroxduplicators.com	Anne M. Mulcahy	None
Xilinx	2100 Logic Dr.	San Jose	CA	95124	408-559-7778	www.xilinx.com	publicrelations@xilinx.com	Willem P. Roelandts	
XTO Energy	810 Houston St.	Fort Worth	TX	76102	817-870-2800	www.xtoenergy.com	info@XTOEnergy.com	Bob R. Simpson	None
Yahoo	701 First Ave.	Sunnyvale	CA	94089	408-349-3300	www.yahoo.com	service@yahoo.com	Jerry Yang	None
YRC Worldwide	10990 Roe Ave.	Leawood	KS	66211	913-696-6100	www.yrcw.com	sdawson@lakpr.com	William D. Zollars	None
Yum Brands	1441 Gardiner Lane	Louisville	KY	40213	502-874-8300	www.yum.com	None	David C. Novak	None
Zale	901 W. Walnut Hill Lane	Irving	TX	75038	972-580-4000	www.zalecorp.com	CustomerService@zales.com	Neal Goldberg	None
Zimmer Holdings	345 E. Main St.	Warsaw	IN	46580	574-267-6131	www.zimmer.com	zimmer.infoperson@zimmer.com	David C. Dvorak	None
Zions Bancorp.	1 S. Main St.	Salt Lake City	UT	84111	801-524-4787	www.zionsbancorporation.com	None	Harris H. Simmons	None
